Attraction,latitude,longitude,address,hierarchy,id,Version,Place
Lemaire Channel,-64.80924259999999,-62.9698297,"52RJ+83 González Videla Antarctic Base, Antarctica",Antarctica,ChIJwfnBRsqseLwRly_SeMg1kOU,v1.0.1,Antarctica
Mount Aconcagua,-32.653179,-70.0108675,"Provincial Aconcagua Park, Parque Provincial Aconcagua, Mendoza, Argentina","Mendoza, Argentina",ChIJR4DDAFWSh5YRaUihql7BNFI,v1.0.1,Argentina (Mendoza)
Iguazu Falls,-25.690864,-54.4408161,"8H55+MM Puerto Canoas, Misiones, Argentina","Misiones, Argentina",ChIJ50jnOXPq9pQRL5ZsgeofhRw,v1.0.1,Argentina (Misiones)
Iguazu Falls (Brazil Side),-25.690864,-54.4408161,"8H55+MM Puerto Canoas, Misiones, Argentina","Misiones, Argentina",ChIJ50jnOXPq9pQRL5ZsgeofhRw,v1.0.1,Argentina (Misiones)
Iguazu Falls (Brazilian Side),-25.690864,-54.4408161,"8H55+MM Puerto Canoas, Misiones, Argentina","Misiones, Argentina",ChIJ50jnOXPq9pQRL5ZsgeofhRw,v1.0.1,Argentina (Misiones)
Iguazu Falls (Paraguay Side),-25.690864,-54.4408161,"8H55+MM Puerto Canoas, Misiones, Argentina","Misiones, Argentina",ChIJ50jnOXPq9pQRL5ZsgeofhRw,v1.0.1,Argentina (Misiones)
Iguazu Falls Full Moon Walk,-25.701401,-54.444851,"7HX4+C3 Puerto Canoas, Misiones, Argentina","Misiones, Argentina",ChIJkTlQ_w_q9pQR_KGUgOolll8,v1.0.1,Argentina (Misiones)
Torres del Rio Azul,-41.9789677,-71.5729197,"2CCG+CR El Bolsón, Río Negro Province, Argentina","Río Negro, Argentina",ChIJk0p2GoW_G5YR6mK-ujvCsVI,v1.0.1,Argentina (Río Negro)
Torres del Río Azul,-41.9789677,-71.5729197,"2CCG+CR El Bolsón, Río Negro Province, Argentina","Río Negro, Argentina",ChIJk0p2GoW_G5YR6mK-ujvCsVI,v1.0.1,Argentina (Río Negro)
Los Glaciares Fitz Roy Trek,-50.3305556,-73.2341667,"Lake Viedma, in the Los Glaciares National Park, Santa Cruz Province in, Santa Cruz, Argentina","Santa Cruz, Argentina",ChIJVZJRWSiypL0R3dHwpGmtXeY,v1.0.1,Argentina (Santa Cruz)
Fitz Roy (Patagonia),-49.271246,-73.04322599999999,4728PXH4+GP,None,ChIJ7b4Xfosavb0RXZ5CiCuG4QA,v1.0.0,Argentina (Santa Cruz)
Perito Moreno Glacier,-50.4967297,-73.1376612,37X8GV36+8W,None,ChIJw1B4IWPJpL0Rvnl0r--igaQ,v1.0.1,Argentina (Santa Cruz)
Blue Mountains Three Sisters,-33.732102,150.31215,"Three Sisters walk, Cliff Dr, Katoomba NSW 2780, Australia","New South Wales, Australia",ChIJhyIHGJtuEmsRpp44zBNBbAQ,v1.0.1,Australia (New South Wales)
Glowworm Tunnel,-33.3349308,150.2493721,"Glowworm Tunnel Rd, Newnes Plateau NSW 2790, Australia","New South Wales, Australia",ChIJNbQ1vjuNDWsRdBDKwp0oo5U,v1.0.1,Australia (New South Wales)
Mount Kosciuszko,-36.45589750000001,148.2635987,"Summit Walk, Kosciuszko NSW 2627, Australia","New South Wales, Australia",ChIJ-QsbV5NJI2sRTfrMuJwpGWc,v1.0.1,Australia (New South Wales)
Kakadu National Park,-13.0922931,132.3937658,5QRJW95V+3G,None,ChIJhWGrIw_RuSwRYAaxDakXAg8,v1.0.1,Australia (Northern)
Uluru (Ayers Rock),-25.3444277,131.0368822,5Q6HM24P+6Q,None,ChIJI1JibStsIysRIV_Fm03NqEM,v1.0.1,Australia (Northern)
Uluru Kata Tjuta Sunrise,-25.3437797,131.0346514,5Q6HM24M+FV,None,ChIJgbjTfixsIysR5BrpX82GKts,v1.0.1,Australia (Northern)
Uluru Sunrise,-25.3361521,131.0048557,5Q6HM273+GW,None,ChIJWQzjSmFsIysR_E10_GhistI,v1.0.1,Australia (Northern)
Tolmer Falls,-13.2005171,130.7134249,"Tolmer Falls, Litchfield Park NT 0822, Australia","Northern, Australia",ChIJL1DO3qoGvywR5nclJ_L6q34,v1.0.0,Australia (Northern)
Cape Tribulation,-16.0888584,145.4622284,"Dubuji Boardwalk, 3867 Cape Tribulation Rd, Cape Tribulation QLD 4873, Australia","Queensland, Australia",ChIJEXX4lYNenWkR8HIgf_HuAAQ,v1.0.1,Australia (Queensland)
Daintree Rainforest,-16.1700308,145.4184612,"RCH9+X9 Diwan QLD, Australia","Queensland, Australia",ChIJywSK0T5XnWkRjxpQmVCFfBQ,v1.0.1,Australia (Queensland)
Daintree Rainforest,-16.1700308,145.4184612,"RCH9+X9 Diwan QLD, Australia","Queensland, Australia",ChIJywSK0T5XnWkRjxpQmVCFfBQ,v1.0.1,Australia (Queensland)
Great Barrier Reef Diving Sites,-16.9213542,145.7807648,"1 Spence St, Cairns City QLD 4870, Australia","Queensland, Australia",ChIJQ2MDVO1meGkRNnEDBqdZghQ,v1.0.1,Australia (Queensland)
Fraser Island,-25.2398229,153.1325243,5R6MQ46M+32,None,ChIJ8WXGwx5h7GsRypvF5Cz6ipU,v1.0.1,Australia (Queensland)
Great Barrier Reef Lady Elliot Island,-24.1128797,152.7140185,5R7JVPP7+RJ,None,ChIJA3boGpQ26WsRFTNwmL8Hssw,v1.0.1,Australia (Queensland)
Whitehaven Beach,-20.2824324,149.038854,5RFFP29Q+2G,None,ChIJoaPzNjlU2GsRHk5q-HH-i4A,v1.0.1,Australia (Queensland)
Kangaroo Island,-35.7752426,137.2142417,"141 Stokes Bay Rd, Duncan SA 5223, Australia","South Australia, Australia",ChIJn4mjDXd5rWoRkMS5RVU2Aw8,v1.0.1,Australia (Southern)
Tasman Island (Tasmania),-43.2381627,148.0023939,"Q262+PX Cape Pillar TAS, Australia","Tasmania, Australia",ChIJBUFWJJoHbaoRUI5RtE7JAw8,v1.0.0,Australia (Tasmania)
Great Barrier Reef Heart Island,-19.7754215,149.2478054,"Heart Reef, Hardy Reef, Great Barrier Reef, Australia",Australia,ChIJ-4TLeAiD2GsROR0x9MvxRNc,v1.0.1,Australia (Unknown)
Heart Reef,-19.7754215,149.2478054,"Heart Reef, Hardy Reef, Great Barrier Reef, Australia",Australia,ChIJ-4TLeAiD2GsROR0x9MvxRNc,v1.0.1,Australia (Unknown)
Hillier Lake,-34.095,123.2027778,4QQ5W643+24,None,ChIJl6199mWiXioRMsmsO5HKvP0,v1.0.0,Australia (Unknown)
Lizard Island (Great Barrier Reef),-14.6680433,145.463777,5RQ78FJ7+QG,None,ChIJEZ70k1kgnmkRDAgKSRJcxuQ,v1.0.0,Australia (Unknown)
Whitehaven Beach (Whitsunday Island),-20.2824324,149.038854,5RFFP29Q+2G,None,ChIJoaPzNjlU2GsRHk5q-HH-i4A,v1.0.0,Australia (Unknown)
Great Ocean Road,-38.6804339,143.3915596,"5225 Colac-Lavers Hill Rd, Lavers Hill VIC 3238, Australia","Victoria, Australia",ChIJMcyMyFMh02oRldDR8MOJbqA,v1.0.1,Australia (Victoria)
Great Ocean Road,-38.6804339,143.3915596,"5225 Colac-Lavers Hill Rd, Lavers Hill VIC 3238, Australia","Victoria, Australia",ChIJMcyMyFMh02oRldDR8MOJbqA,v1.0.0,Australia (Victoria)
Great Ocean Road,-38.6804339,143.3915596,"5225 Colac-Lavers Hill Rd, Lavers Hill VIC 3238, Australia","Victoria, Australia",ChIJMcyMyFMh02oRldDR8MOJbqA,v1.0.1,Australia (Victoria)
Great Ocean Road,-38.6804339,143.3915596,"5225 Colac-Lavers Hill Rd, Lavers Hill VIC 3238, Australia","Victoria, Australia",ChIJMcyMyFMh02oRldDR8MOJbqA,v1.0.0,Australia (Victoria)
Great Ocean Walk,-38.8030987,143.4571761,"Great Ocean Walk, Glenaire VIC 3238, Australia","Victoria, Australia",ChIJ_7HSW9Z4gqoR_HjATyUT7bo,v1.0.1,Australia (Victoria)
The Twelve Apostles,-38.6645738,143.1029791,"84P3+55 Princetown VIC, Australia","Victoria, Australia",ChIJDz1H5hWegqoRMfiDyQGd0tE,v1.0.1,Australia (Victoria)
Monkey Mia Dolphin Experience,-25.7937776,113.7198359,"1 Monkey Mia Rd, Monkey Mia WA 6537, Australia","Western Australia, Australia",ChIJ94129tQY4SsRUhW3_FZw8C4,v1.0.1,Australia (Western)
Ningaloo Reef,-22.704723,113.6754832,"7MWG+45 Ningaloo WA, Australia","Western Australia, Australia",ChIJleEOSslA_CsR-gksTXGYlW4,v1.0.1,Australia (Western)
Pinnacles Desert,-30.591275,115.1581522,"C555+F7 Nambung WA, Australia","Western Australia, Australia",ChIJVVJhIJMm0isRGCL6h2V0xCA,v1.0.1,Australia (Western)
Purnululu (Bungle Bungle Range),-17.4891658,128.3702558,"G96C+84 Purnululu WA, Australia","Western Australia, Australia",ChIJm1naQqdKnCwReDaoERB1gNo,v1.0.1,Australia (Western)
Karijini National Park,-22.6751716,118.2889234,5P9W87FQ+WH,None,ChIJI897ZRG98isRUHeLBzn2AA8,v1.0.1,Australia (Western)
Leutasch Gorge,47.4277845,11.2354441,"Schanz 273a, 6105 Leutasch, Austria","Tirol, Austria",ChIJhZZgy-oOnUcRkx8JC13WRMA,v1.0.0,Austria
Blancaneaux Lodge,17.0369372,-88.95366960000001,"22PW+QGG, Blancaneaux, Belize","Cayo, Belize",ChIJn9Z4YRHVXY8R76f3q-4b0i0,v1.0.0,Belize
Cayó Espanto (Belize),17.9474977,-88.12273239999999,"WVWG+XW San Pedro, Belize","Corozal, Belize",ChIJU3IbXCyBXI8REbnwwWpVg5U,v1.0.0,Belize
Chaa Creek Lodge,17.1082459,-89.0734319,"4W5G+7J San Ignacio, Belize","Cayo, Belize",ChIJ_5JKVdxnXo8RnQqXSJM1Gi4,v1.0.0,Belize
Copal Tree Lodge,16.1663055,-88.81178279999999,"558Q+G7 Forest Home, Belize","Toledo, Belize",ChIJd8aOVW-1YI8RteV6z4uMjDE,v1.0.0,Belize
Matachica Resort (Belize),17.9845259,-87.9216093,"X3MH+R9 San Pedro, Belize","Corozal, Belize",ChIJHR8iDPBhW48R_goJ8kudc5o,v1.0.0,Belize
Turtle Inn,16.5309743,-88.3614214,"GJJQ+CF2, Placencia, Belize","Stann Creek, Belize",ChIJayd43iqIXY8RiFNeDMcjfjE,v1.0.0,Belize
Great Blue Hole,17.3159545,-87.53468509999999,769J8F88+94,None,ChIJe3X-RHYrQ48RuziFIP3fRDI,v1.0.1,Belize
Great Blue Hole,17.3159545,-87.53468509999999,769J8F88+94,None,ChIJe3X-RHYrQ48RuziFIP3fRDI,v1.0.1,Belize
Great Blue Hole,17.3159545,-87.53468509999999,769J8F88+94,None,ChIJe3X-RHYrQ48RuziFIP3fRDI,v1.0.1,Belize
Great Blue Hole,17.3159545,-87.53468509999999,769J8F88+94,None,ChIJe3X-RHYrQ48RuziFIP3fRDI,v1.0.1,Belize
Great Blue Hole,17.3159545,-87.53468509999999,769J8F88+94,None,ChIJe3X-RHYrQ48RuziFIP3fRDI,v1.0.1,Belize
Great Blue Hole,17.3159545,-87.53468509999999,769J8F88+94,None,ChIJe3X-RHYrQ48RuziFIP3fRDI,v1.0.1,Belize
Great Blue Hole,17.3159545,-87.53468509999999,769J8F88+94,None,ChIJe3X-RHYrQ48RuziFIP3fRDI,v1.0.1,Belize
Great Blue Hole,17.3159545,-87.53468509999999,769J8F88+94,None,ChIJe3X-RHYrQ48RuziFIP3fRDI,v1.0.1,Belize
Laguna Colorada,-22.2082719,-67.7735206,"Q6RG+MH Juntacha, Bolivia","de Potosí, Bolivia",ChIJoUBfgsY_qpYRh9o60iwX090,v1.0.1,Bolivia
Lake Titicaca Sun Island,-16.017232,-69.1779923,"XRMC+4R Challapampa, Bolivia","La Paz, Bolivia",ChIJM7cb5SnEXZERhkx6LZauTU8,v1.0.1,Bolivia
Salar de Uyuni Salt Hotel,-20.2804585,-66.98237630000001,"P299+R2 Colchani, Bolivia","Potosi, Bolivia",ChIJYw8q9UO1_5MRGscmX6ywAuY,v1.0.1,Bolivia
Salar de Uyuni,-20.1337772,-67.48913449999999,57FJVG86+F8,None,ChIJ14vhJbOEVZERtniCFToY5Aw,v1.0.1,Bolivia
Salar de Uyuni,-20.1337772,-67.48913449999999,57FJVG86+F8,None,ChIJ14vhJbOEVZERtniCFToY5Aw,v1.0.1,Bolivia
Salar de Uyuni,-20.1337772,-67.48913449999999,57FJVG86+F8,None,ChIJ14vhJbOEVZERtniCFToY5Aw,v1.0.0,Bolivia
Salar de Uyuni,-20.1337772,-67.48913449999999,57FJVG86+F8,None,ChIJ14vhJbOEVZERtniCFToY5Aw,v1.0.0,Bolivia
Salar de Uyuni,-20.1337772,-67.48913449999999,57FJVG86+F8,None,ChIJ14vhJbOEVZERtniCFToY5Aw,v1.0.1,Bolivia
Salar de Uyuni,-20.1337772,-67.48913449999999,57FJVG86+F8,None,ChIJ14vhJbOEVZERtniCFToY5Aw,v1.0.1,Bolivia
Salar de Uyuni,-20.1337772,-67.48913449999999,57FJVG86+F8,None,ChIJ14vhJbOEVZERtniCFToY5Aw,v1.0.0,Bolivia
Salar de Uyuni,-20.1337772,-67.48913449999999,57FJVG86+F8,None,ChIJ14vhJbOEVZERtniCFToY5Aw,v1.0.0,Bolivia
Salar de Uyuni Stargazing,-20.2399722,-67.58111,57FJQC69+2H,None,ChIJc9WGFE-bVZERrD0KjfhcPbg,v1.0.1,Bolivia
Chobe River Safari,-17.8168147,25.1385061,"54MQ+7CC Chobe Morning River Safari, Kasane, Botswana","Chobe, Botswana",ChIJhV3ZGaKdWhkRtoxbQj_bj7g,v1.0.1,Botswana
Chobe River Safari,-17.8168147,25.1385061,"54MQ+7CC Chobe Morning River Safari, Kasane, Botswana","Chobe, Botswana",ChIJhV3ZGaKdWhkRtoxbQj_bj7g,v1.0.1,Botswana
Chobe River Safari,-17.8168147,25.1385061,"54MQ+7CC Chobe Morning River Safari, Kasane, Botswana","Chobe, Botswana",ChIJhV3ZGaKdWhkRtoxbQj_bj7g,v1.0.1,Botswana
Chobe River Safari,-17.8168147,25.1385061,"54MQ+7CC Chobe Morning River Safari, Kasane, Botswana","Chobe, Botswana",ChIJhV3ZGaKdWhkRtoxbQj_bj7g,v1.0.1,Botswana
Duba Plains Camp (Duba Plains Reserve),-19.0205523,22.6978264,"XMHX+Q4 Kakoro, Botswana","North-West, Botswana",ChIJJQmXe8QoVhkRoncbBuWC0gA,v1.0.0,Botswana
Okavango Delta,-19.6510095,22.9058802,"8WX4+H9 Ranwanalenaus, Botswana","North-West, Botswana",ChIJJycNodZsVhkRrivLs87AFQQ,v1.0.1,Botswana
Kalahari,-22.328474,24.684866,5G96MMCM+JW,None,ChIJESJF0SFDpB4Re68Vhyp8ZPE,v1.0.0,Botswana
Anavilhanas Jungle Lodge (Amazonas),-2.6381103,-60.9242996,"936G+Q7 Novo Airão, AM, Brazil","Amazonas, Brazil",ChIJ-zppeocZbZIRk0UULcE3XR8,v1.0.0,Brazil (Amazonas)
Anavilhanas National Park (Amazonas),-2.5349814,-60.83612179999999,"F587+2H Valparaíso, Novo Airão - AM, Brazil","Amazonas, Brazil",ChIJqaqUc3oRbZIRa-FUBlEgc6w,v1.0.0,Brazil (Amazonas)
Bonito (Abismo das Anhumas),-21.1450618,-56.6001962,"V93X+XW Bonito, MS, Brazil","Mato Grosso do Sul, Brazil",ChIJ5TjkGlZgfJQRTNZTN9e1yfY,v1.0.0,Brazil (Mato Grosso do Sul)
Bonito (Buraco das Araras),-21.4918276,-56.4032334,"GH5W+7P São Joaquim - Jardim, MS, Brazil","Mato Grosso do Sul, Brazil",ChIJrSFCw73CfJQRFEU_St-mcQk,v1.0.0,Brazil (Mato Grosso do Sul)
Refugio Ecológico Caimán (Pantanal),-19.9544404,-56.30422859999999,"Estância Caiman S/N Zona Rural - Taunay, Miranda - MS, 79380-000, Brazil","Mato Grosso do Sul, Brazil",ChIJO5wt1KfwfpQR8ap69MgtdWk,v1.0.0,Brazil (Mato Grosso do Sul)
Pantanal Wetlands,-17.7166397,-57.38341269999999,58J47JM8+8J,None,ChIJUZ2-8i85hJMR7JnQWdFBuk0,v1.0.1,Brazil (Mato Grosso do Sul)
Serra do Caraça (Minas Gerais),-20.1333333,-43.5,"VG82+M2 Santa Rita Durão, Mariana - MG, Brazil","Minas Gerais, Brazil",ChIJF9YDsEMVpAARCtCEUcoxMi0,v1.0.0,Brazil (Minas Gerais)
Hotel Belmond das Cataratas,-25.6841773,-54.4388518,"Rodovia, 469 - Parque Nacional, Foz do Iguaçu - PR, 85855-750, Brazil","Paraná, Brazil",ChIJWZUzp3jq9pQRaUqL9AJx9Fg,v1.0.0,Brazil (Paraná)
Iguaçu (Parque das Aves),-25.6139228,-54.48256569999999,"Av. das Cataratas, 12450 - Vila Yolanda, Foz do Iguaçu - PR, 85859-899, Brazil","Paraná, Brazil",ChIJzSqJHuWT9pQRNz99UhJ_u5I,v1.0.0,Brazil (Paraná)
Parque Nacional da Foz do Iguaçu,-25.460508,-53.8177841,"G5QJ+QV Matelândia, PR, Brazil","Paraná, Brazil",ChIJPSROs21N8ZQRj6pUWNM8Y24,v1.0.0,Brazil (Paraná)
Rio de Janeiro,-22.9068467,-43.1728965,"Av. Alm. Barroso, 472 - Centro, Rio de Janeiro - RJ, 20031-002, Brazil","Rio de Janeiro, Brazil",ChIJW6AIkVXemwARTtIvZ2xC3FA,v1.0.0,Brazil (Rio de Janeiro)
Visconde de Maua (Rio de Janeiro),-22.3308242,-44.5324395,"Rodovia Vereador Quirino Resende - Minas Gerais, 27553, Brasil - Pedra Selada, Resende - RJ, Brazil","Rio de Janeiro, Brazil",ChIJX_iVSl1lngAR9y44JaUitbc,v1.0.0,Brazil (Rio de Janeiro)
Botanique Hotel & Spa,-22.7813415,-45.6627113,"Rua miguel henrique da silva 66, Campos do Jordão - SP, 12460-000, Brazil","São Paulo, Brazil",ChIJpbvN1u5jzJQRwgZet2WQWDI,v1.0.0,Brazil (São Paulo)
Lençois Maranhenses National Park (Bahía),-2.4859385,-43.128407,"GV7C+JJ Santo Amaro do Maranhão - State of Maranhão, Brazil","of Maranhão, Brazil",ChIJX745XuGe8QcR65t-1dCVKC0,v1.0.0,Brazil (Maranhão)
Fernando de Noronha,-3.8447976,-32.4268917,"5H4F+36 Fernando de Noronha - State of Pernambuco, Brazil","of Pernambuco, Brazil",ChIJVwsx1j_eNQYRiXV4A-F2Gg4,v1.0.1,Brazil (Pernambuco)
Rila Monastery,42.1334828,23.3401919,"Rila Monastery, 2643 Rilski manastir, Bulgaria","Kyustendil, Bulgaria",ChIJGdU6Hb_iqhQRInfCtfEKi-A,v1.0.1,Bulgaria
Banff Moraine Lake,51.3217416,-116.1860049,"8RC7+MH Lake Louise, AB, Canada","Alberta, Canada",ChIJF-WO9ctbd1MRlVzAw6KnyEI,v1.0.1,Canada (Alberta)
Banff Upper Hot Springs,51.1507689,-115.5609915,"1 Mountain Ave, Banff, AB T1L 1K2, Canada","Alberta, Canada",ChIJY_1__x_KcFMRZsdws-Mivvs,v1.0.1,Canada (Alberta)
Lake Louise,51.4253705,-116.1772552,"Lake Louise Village South, Lake Louise, AB T0L, Canada","Alberta, Canada",ChIJEc7hoChdd1MR5rxlY3s8Nzw,v1.0.1,Canada (Alberta)
Moraine Lake,51.3217416,-116.1860049,"8RC7+MH Lake Louise, AB, Canada","Alberta, Canada",ChIJF-WO9ctbd1MRlVzAw6KnyEI,v1.0.1,Canada (Alberta)
Moraine Lake (Banff National Park),51.3217416,-116.1860049,"8RC7+MH Lake Louise, AB, Canada","Alberta, Canada",ChIJF-WO9ctbd1MRlVzAw6KnyEI,v1.0.0,Canada (Alberta)
Valley of Ten Peaks,51.3211532,-116.2067881,"8QCV+F7 Lake Louise, AB, Canada","Alberta, Canada",ChIJh8fhDtdbd1MRH-_yxBzqwx4,v1.0.1,Canada (Alberta)
Banff Icefields Parkway,51.4968464,-115.9280562,9536F3WC+PQ,None,ChIJlZGSjCtmd1MR5tfKrGjincA,v1.0.1,Canada (Alberta)
A-maze-ing Laughter (Vancouver),49.28759909999999,-123.1419204,"Morton Park, 1800 Morton Ave, Vancouver, BC V6G, Canada","British Columbia, Canada",ChIJLzVSqyhyhlQRbutd4AnRhPU,v1.0.0,Canada (British Columbia)
English Bay (Vancouver),49.2871809,-123.1614389,"7RPQ+VC Vancouver, BC, Canada","British Columbia, Canada",ChIJHVYdgzlyhlQRJYPLPIK0njY,v1.0.0,Canada (British Columbia)
Glacier National Park of Canada,51.335289,-117.5297595,"8FPC+43 Rogers Pass, BC, Canada","British Columbia, Canada",ChIJxWd-JkUIeVMRuQ7amxSgRPA,v1.0.1,Canada (British Columbia)
Haida Gwaii,53.1013888,-132.0406057,"01 Resevoir Rd, Skidegate, Haida Gwaii, North Coast, BC V0T 1S0, Canada","British Columbia, Canada",ChIJAzMGVmJvbFQR673y7geLkuw,v1.0.1,Canada (British Columbia)
Nimmo Bay Wilderness Resort (British Columbia),50.9394912,-126.6819076,"W8Q9+Q6 Hopetown, BC, Canada","British Columbia, Canada",ChIJn8xAH-inZFQRqM4V7m-jznY,v1.0.0,Canada (British Columbia)
Stanley Park (Vancouver),49.30425839999999,-123.1442522,"29 Lake Trail, Vancouver, BC V6G, Canada","British Columbia, Canada",ChIJo-QmrYxxhlQRFuIJtJ1jSjY,v1.0.0,Canada (British Columbia)
Great Bear Rainforest,53.3896248,-128.9304399,945H93Q9+RR,None,ChIJX86IhvQuclQR02fBiZCb7Y8,v1.0.1,Canada (British Columbia)
Great Bear Rainforest,53.3896248,-128.9304399,945H93Q9+RR,None,ChIJX86IhvQuclQR02fBiZCb7Y8,v1.0.0,Canada (British Columbia)
Great Bear Rainforest,53.3896248,-128.9304399,945H93Q9+RR,None,ChIJX86IhvQuclQR02fBiZCb7Y8,v1.0.1,Canada (British Columbia)
Great Bear Rainforest,53.3896248,-128.9304399,945H93Q9+RR,None,ChIJX86IhvQuclQR02fBiZCb7Y8,v1.0.0,Canada (British Columbia)
Tablelands,49.4379014,-57.9982852,"C2Q2+5M Glenburnie-Birchy Head-Shoal Brook, NL, Canada","Newfoundland and Labrador, Canada",ChIJhYq2p3rje0sRM7rUxNzyHbg,v1.0.1,Canada (Labrador)
Tablelands,49.4379014,-57.9982852,"C2Q2+5M Glenburnie-Birchy Head-Shoal Brook, NL, Canada","Newfoundland and Labrador, Canada",ChIJhYq2p3rje0sRM7rUxNzyHbg,v1.0.1,Canada (Labrador)
Niagara Falls,43.0895577,-79.0849436,"5879-5899 Stanley Ave, Niagara Falls, ON L2G 3Y1, Canada","Ontario, Canada",ChIJuU2C7F5E04kRiKK9VmHF0kY,v1.0.1,Canada (Ontario)
Montmorency,46.8875043,-71.1477874,"VVQ2+2V Québec City, QC, Canada","Quebec, Canada",ChIJqwAQnqK-uEwRIxnWIPF1QtU,v1.0.0,Canada (Québec)
White Wolves,45.8125443,-74.2310115,"33 Chem. Fiddleridge Resort, Mille-Isles, QC J0R 1A0, Canada","Québec, Canada",ChIJnWaK9Nwlz0wRdggtNPbV69g,v1.0.0,Canada (Québec)
Great Bear Rainforest,53.3896248,-128.9304399,945H93Q9+RR,None,ChIJX86IhvQuclQR02fBiZCb7Y8,v1.0.1,Canada (Unknown)
Great Bear Rainforest,53.3896248,-128.9304399,945H93Q9+RR,None,ChIJX86IhvQuclQR02fBiZCb7Y8,v1.0.0,Canada (Unknown)
Great Bear Rainforest,53.3896248,-128.9304399,945H93Q9+RR,None,ChIJX86IhvQuclQR02fBiZCb7Y8,v1.0.1,Canada (Unknown)
Great Bear Rainforest,53.3896248,-128.9304399,945H93Q9+RR,None,ChIJX86IhvQuclQR02fBiZCb7Y8,v1.0.0,Canada (Unknown)
Mount Assiniboine Provisional Park,50.9454757,-115.761753,9526W6WQ+57,None,ChIJyRvhk4qkcFMRYZ6f893J780,v1.0.0,Canada (Unknown)
Dzanga-Bai,2.9539082,16.3651074,"X938+H2 Bayanga, Central African Republic","Sangha-Mbaéré, Central African Republic",ChIJty7QEL7SlxAR-4FPVtQ0jC0,v1.0.0,Central African
Crusoe Island Lodge (Chile),-33.64332,-78.81492,"Robinson Crusoe Island Robinson Crusoe Island, Juan Fernández, Valparaíso, Chile","Valparaíso, Chile",ChIJf5-J7Z-i_5YRTwkH4O_YQCY,v1.0.0,Chile
Ecocamp Patagonia (Torre del Paine),-50.9631884,-72.86361099999999,"24PP+PH Amarga, Torres de Paine, Chile","Magallanes y la Antártica Chilena, Chile",ChIJDUs6pxnor70RZLy9zqF58k8,v1.0.0,Chile
Museo de Mármol (Patagonia),-46.6586031,-72.6275525,"89RC+HX Puerto Río Tranquilo, Chile Chico, Chile","Aysén, Chile",ChIJKf_V1RRWkr0Ri7fQv6TzV_Q,v1.0.0,Chile
Rapa Nui (Easter Island),-27.112723,-109.3496865,"VMP2+W4 Hanga Roa, Easter Island, Chile","Valparaíso, Chile",ChIJK67UqBfwR5kRti0qwO2z5bs,v1.0.1,Chile
Salar de Tara,-23.6318171,-70.378872,"Salar de Tara 481, 1242281 Antofagasta, Chile","Antofagasta, Chile",ChIJoe8SXtfUr5YRp7LowXdZ5r0,v1.0.1,Chile
Tierra Atacama Hotel & Spa (Desierto Atacama),-33.894919,-71.4563259,"Hermosilla 556, 9660000 San Pedro, Región Metropolitana, Chile","Región Metropolitana, Chile",ChIJB1wVWUCxY5YRDyQ2fYxQya8,v1.0.0,Chile
Tierra Atacama Hotel & Spa (Desierto Atacama),-33.894919,-71.4563259,"Hermosilla 556, 9660000 San Pedro, Región Metropolitana, Chile","Región Metropolitana, Chile",ChIJB1wVWUCxY5YRDyQ2fYxQya8,v1.0.0,Chile
Torres del Paine,-51.25334429999999,-72.3516124,"Av. Bernardo O'Higgins 162, 6170000 Torres de Paine, Magallanes y la Antártica Chilena, Chile","Magallanes y la Antártica Chilena, Chile",ChIJmbm3Z8I3pb0RTTJY_vPk2QM,v1.0.1,Chile
Torres del Paine,-51.25334429999999,-72.3516124,"Av. Bernardo O'Higgins 162, 6170000 Torres de Paine, Magallanes y la Antártica Chilena, Chile","Magallanes y la Antártica Chilena, Chile",ChIJmbm3Z8I3pb0RTTJY_vPk2QM,v1.0.1,Chile
Torres del Paine,-51.25334429999999,-72.3516124,"Av. Bernardo O'Higgins 162, 6170000 Torres de Paine, Magallanes y la Antártica Chilena, Chile","Magallanes y la Antártica Chilena, Chile",ChIJmbm3Z8I3pb0RTTJY_vPk2QM,v1.0.0,Chile
Torres del Paine,-51.25334429999999,-72.3516124,"Av. Bernardo O'Higgins 162, 6170000 Torres de Paine, Magallanes y la Antártica Chilena, Chile","Magallanes y la Antártica Chilena, Chile",ChIJmbm3Z8I3pb0RTTJY_vPk2QM,v1.0.1,Chile
Torres del Paine,-51.25334429999999,-72.3516124,"Av. Bernardo O'Higgins 162, 6170000 Torres de Paine, Magallanes y la Antártica Chilena, Chile","Magallanes y la Antártica Chilena, Chile",ChIJmbm3Z8I3pb0RTTJY_vPk2QM,v1.0.1,Chile
Torres del Paine,-51.25334429999999,-72.3516124,"Av. Bernardo O'Higgins 162, 6170000 Torres de Paine, Magallanes y la Antártica Chilena, Chile","Magallanes y la Antártica Chilena, Chile",ChIJmbm3Z8I3pb0RTTJY_vPk2QM,v1.0.0,Chile
Torres del Paine,-51.25334429999999,-72.3516124,"Av. Bernardo O'Higgins 162, 6170000 Torres de Paine, Magallanes y la Antártica Chilena, Chile","Magallanes y la Antártica Chilena, Chile",ChIJmbm3Z8I3pb0RTTJY_vPk2QM,v1.0.1,Chile
Torres del Paine,-51.25334429999999,-72.3516124,"Av. Bernardo O'Higgins 162, 6170000 Torres de Paine, Magallanes y la Antártica Chilena, Chile","Magallanes y la Antártica Chilena, Chile",ChIJmbm3Z8I3pb0RTTJY_vPk2QM,v1.0.1,Chile
Torres del Paine,-51.25334429999999,-72.3516124,"Av. Bernardo O'Higgins 162, 6170000 Torres de Paine, Magallanes y la Antártica Chilena, Chile","Magallanes y la Antártica Chilena, Chile",ChIJmbm3Z8I3pb0RTTJY_vPk2QM,v1.0.0,Chile
Valle del Silencio (Torres del Paine),-51.0217702,-73.0444244,"XXH4+76 Estancia Pudeto, Torres de Paine, Chile","Magallanes y la Antártica Chilena, Chile",ChIJQxCh-_E7pb0RTp-UAMIbTsE,v1.0.0,Chile
Atacama Desert,-23.8634189,-69.1328491,578G4VP8+JV,None,ChIJRxzvf1JGr5YR3COCqre7TQM,v1.0.1,Chile
Torres del Paine W Circuit,-50.9423262,-73.4067879,37X83H5V+37,None,ChIJB6_bgwEbpb0RWM4aRVcmn70,v1.0.1,Chile
Torres del Paine W Trek,-50.9423262,-73.4067879,37X83H5V+37,None,ChIJB6_bgwEbpb0RWM4aRVcmn70,v1.0.1,Chile
Mount Huangshan (Yellow Mountain),30.137803,118.165201,"45Q8+43 Huangshan District, Huangshan City, Anhui, China","Anhui, China",ChIJPY1nCYzGNTQRflFhHC-RbXA,v1.0.1,China (Anhui)
Great Wall at Mutianyu,40.432683,116.564006,"CHM7+3JC, Mutianyu Rd, Huai Rou Qu, Bei Jing Shi, China, 101406","Bei Jing Shi, China",ChIJKS2Kiggl8TURmHgLveqgKgQ,v1.0.1,China (Bei Jing Shi)
Jiayuguan Pass,39.804113,98.226503,"R63G+JJR, Jiayuguan, Jiayuguan City, Gansu, China, 735100","Gansu, China",ChIJY7HfiHkkyDcRZg-p0uIZa8U,v1.0.1,China (Gansu)
Wulingyuan Scenic Area,29.335749,110.481305,"China, Hu Nan Sheng, Zhang Jia Jie Shi, Wu Ling Yuan Qu, 军地坪 邮政编码: 427499","Hu Nan Sheng, China",ChIJUyM0FVwGmzYRBZfSzn_jkI8,v1.0.1,China (Hu Nan Sheng)
Tianmen Mountain National Park,29.05229,110.48003,"3F2J+W2 Tianmen Shan Town, Yongding District, Zhangjiajie, Hunan, China","Hunan, China",ChIJIwOzC1awmzYRNskruUrMRcY,v1.0.0,China (Hunan)
Tianzi Mountains,26.033209,111.899291,"2VMX+7P Shuangpai County, Yongzhou, Hunan, China","Hunan, China",ChIJ0Uxd1x79oDYRrtrwHUeihCY,v1.0.0,China (Hunan)
Wulingyuan Baofeng Lake,29.322562,110.552792,"8HF3+24 Wulingyuan District, Zhangjiajie, Hunan, China","Hunan, China",ChIJDWUltu4ImzYR07fga6IQttw,v1.0.1,China (Hunan)
Wulingyuan Glass Bridge,29.3982154,110.6962154,"9MXW+JV5, Cili County, Zhangjiajie, Hunan, China, 427234","Hunan, China",ChIJx-X060YNmzYR3DnNzEWGXC4,v1.0.1,China (Hunan)
Wulingyuan Tianmen Mountain,29.046809,110.482084,"2FWJ+PR Dapingzhen, Yongding District, Zhangjiajie, Hunan, China","Hunan, China",ChIJz7mBDfmwmzYRWPIk9Fgr6AU,v1.0.1,China (Hunan)
Zhangjiajie Glass Bridge,29.3982154,110.6962154,"9MXW+JV5, Cili County, Zhangjiajie, Hunan, China, 427234","Hunan, China",ChIJx-X060YNmzYR3DnNzEWGXC4,v1.0.1,China (Hunan)
Mount Kailash,31.0675,81.3119444,"3886+XQW, Burang County, Ngari Prefecture, Tibet, China, 859512","Tibet, China",ChIJa_vrGMqQpTkR-ofx8m4izt4,v1.0.1,China (Tibet)
Gansu Zhangye National Geopark,38.971941,100.44094,"China, Zhang Ye Shi, Gan Zhou Qu, CN 甘肃省 张掖市 甘州区 张掖国家湿地公园西门口停车场 邮政编码: 734099",China,ChIJcQqdEn4vtTcRY7nqYI5qzlE,v1.0.0,China (Unknown)
Gansu Zhangye National Geopark,38.971941,100.44094,"China, Zhang Ye Shi, Gan Zhou Qu, CN 甘肃省 张掖市 甘州区 张掖国家湿地公园西门口停车场 邮政编码: 734099",China,ChIJcQqdEn4vtTcRY7nqYI5qzlE,v1.0.0,China (Unknown)
Guoliang Tunnel,35.731287,113.603825,"CN 河南省 新乡市 辉县市 万仙山景区 1, 辉县市新乡市 China, 453648",China,ChIJAWFrjMQP2TURe-dZZFCYMrw,v1.0.0,China (Unknown)
Jiuzhaigou Valley,33.26004210000001,103.9185994,"China, A Ba Zang Zu Qiang Zu Zi Zhi Zhou, Jiu Zhai Gou Xian, 边边街3-8号 邮政编码: 623402",China,ChIJKWccnva99zYRxgz2tcjo_ck,v1.0.1,China (Unknown)
Mount Hua / Huashan Mountains (Shanxi),34.477861,110.084789,"China, Wei Nan Shi, Hua Yin Shi, 华山景区瓮峪站 邮政编码: 714299",China,ChIJr5Vfs4NuezYR1iFMFJ7iPa0,v1.0.0,China (Unknown)
Mt. Huashan (Road of the Dead),34.477861,110.084789,"China, Wei Nan Shi, Hua Yin Shi, 华山景区瓮峪站 邮政编码: 714299",China,ChIJr5Vfs4NuezYR1iFMFJ7iPa0,v1.0.0,China (Unknown)
Reed Flute Cave (Guillin),25.304409,110.273614,"China, Gui Lin Shi, Xiu Feng Qu, 芦笛岩 邮政编码: 541002",China,ChIJs8zoz1f0pDYRWhx3YnA2xV0,v1.0.0,China (Unknown)
Stone Forest,24.81677,103.32617,"China, Kun Ming Shi, Shi Lin Yi Zu Zi Zhi Xian, CN 云南省 昆明市 石林彝族自治县 100 米 邮政编码: 652207",China,ChIJ518e8PAQ0DYRlBfTYRTjoR0,v1.0.0,China (Unknown)
Wulingyuan Tianzi Mountain,29.379323,110.463655,"China, Zhang Jia Jie Shi, Wu Ling Yuan Qu, 天子山自然保护区 邮政编码: 427401",China,ChIJwbGc8zAEmzYR-lSxqBcxNog,v1.0.1,China (Unknown)
Wulingyuan Yellow Dragon Cave,29.353463,110.536384,"China, Zhang Jia Jie Shi, Wu Ling Yuan Qu, 袁家界景区 邮政编码: 427499",China,ChIJEfewKk0PmzYRZV_HI0-7nLs,v1.0.1,China (Unknown)
Zhangjiajie National Forest Park,29.315305,110.434767,"China, Zhang Jia Jie Shi, Wu Ling Yuan Qu, 国家森林公园袁家界风景区 邮政编码: 427403",China,ChIJoaxDGsqvmzYRbwukZex5gKE,v1.0.1,China (Unknown)
Zhangjiajie National Forest Park,29.315305,110.434767,"China, Zhang Jia Jie Shi, Wu Ling Yuan Qu, 国家森林公园袁家界风景区 邮政编码: 427403",China,ChIJoaxDGsqvmzYRbwukZex5gKE,v1.0.1,China (Unknown)
Parque Nacional Tayrona,11.3064409,-74.0657561,"8W4M+HM Santa Marta, Magdalena, Colombia","Magdalena, Colombia",ChIJTV_06iKL9I4RL4jby9wjV0g,v1.0.0,Colombia
Santa Rosa Waterfall,4.842333,-75.55276529999999,"RCRW+WV Santa Rosa de Cabal, Risaralda, Colombia","Risaralda, Colombia",ChIJcQk09kCDOI4REc8BTCDn4ZU,v1.0.0,Colombia
Tequendema Falls (Bogotá),4.5748595,-74.2933816,"HPF4+WJ Soacha, Cundinamarca, Colombia","Cundinamarca, Colombia",ChIJbaL905V0P44RojyYLnkg3vc,v1.0.0,Colombia
Caño Cristales,2.2642668,-73.79435149999999,67J87674+P7,None,ChIJl9088_W2Io4RkS0eSGtMsgU,v1.0.0,Colombia
Parque Nacional Sierra Nevada de Santa Marta,10.8292413,-73.6923443,7728R8H5+M3,None,ChIJKzTP8mYm9Y4RK1f9NTffGWM,v1.0.0,Colombia
Andaz Resort,10.641584,-85.658913,"J8RR+G5G, Guanacaste Province, Culebra, Costa Rica","Guanacaste, Costa Rica",ChIJQSGM1hqBdY8RxC6jlVmi-LI,v1.0.0,Costa Rica
"Bosque Nubloso de Monteverde, Puntarenas",10.2989417,-84.7681559,"76XJ+HP Alajuela Province, San Ramón, Costa Rica","Alajuela, Costa Rica",ChIJzxHsVYcZoI8RZs7pnue4L68,v1.0.0,Costa Rica
"Catara El Santuario, Upala",10.9030874,-85.3300818,"WM3C+C96, Provincia de Alajuela, Upala, Costa Rica","Alajuela, Costa Rica",ChIJ6ygsfOJrdY8R3aBF64DgIHA,v1.0.0,Costa Rica
Corcovado National Park,8.540835399999999,-83.57096399999999,"GCRH+8J Provincia de Puntarenas, Puerto Jiménez, Costa Rica","Puntarenas, Costa Rica",ChIJ9UsxeymBo48R9dxnGwzufHI,v1.0.0,Costa Rica
"Curubandé, Guanacaste",10.7197949,-85.4104706,"PH9Q+WR6, Guanacaste Province, Curubandé de Liberia, Costa Rica","Guanacaste, Costa Rica",ChIJ4_mlcuJkdY8RQJSpniHvDeU,v1.0.0,Costa Rica
El Silencio (Bajos del Toro),10.2043716,-84.30546609999999,"6M3V+PR Alajuela Province, Valverde Vega, Costa Rica","Alajuela, Costa Rica",ChIJP6wfD3FgoI8RQt7xu8drm2Y,v1.0.0,Costa Rica
Finca Bellavista (Fila Tortuga),8.786228399999999,-83.2117258,"QQPQ+F8 Puntarenas Province, Piedras Blancas, Costa Rica","Puntarenas, Costa Rica",ChIJ6-penp4_pI8RG9qhj2PmL7U,v1.0.0,Costa Rica
Glass Frog,10.7241384,-85.07384449999999,"PWFG+FQ, Provincia de Guanacaste, Upala, Costa Rica","Guanacaste, Costa Rica",ChIJf30D8VBQdY8RexqOklMBej8,v1.0.0,Costa Rica
Hacienda Alta Gracia (Perez Zeledón),9.3346252,-83.57711019999999,"8CMF+V5 San José Province, Pérez Zeledón, Costa Rica","San José, Costa Rica",ChIJ7a45p8aypo8RDWZhtLI5T_M,v1.0.0,Costa Rica
"Laguna de Hule, Alajuela",10.2946307,-84.2100935,"7QVQ+VX Provincia de Alajuela, Río Cuarto, Costa Rica","Alajuela, Costa Rica",ChIJ8725_d6LoI8RzV9uA3dE8nk,v1.0.0,Costa Rica
Lapa-Rios (Peninsula de Osa),8.400234800000002,-83.28495149999999,"CP28+32 Provincia de Puntarenas, Puerto Jiménez, Costa Rica","Puntarenas, Costa Rica",ChIJca_8u1R9pI8RTrw0plfWimk,v1.0.0,Costa Rica
"Manzanilla-Gandoca, Limón",9.612355599999999,-82.6807472,"J869+WP Limón Province, Manzanillo, Costa Rica","Limón, Costa Rica",ChIJe7jCSQtFpo8Rv6kxvJf1rAY,v1.0.0,Costa Rica
Monteverde Cloud Forest,10.2973324,-84.8255097,"75WF+WQQ, Puntarenas Province, Monteverde, Costa Rica","Puntarenas, Costa Rica",ChIJyd2-vgoZoI8RJ9g6Gz-pVWY,v1.0.1,Costa Rica
Monteverde Reserve,10.2989417,-84.7681559,"76XJ+HP Alajuela Province, San Ramón, Costa Rica","Alajuela, Costa Rica",ChIJzxHsVYcZoI8RZs7pnue4L68,v1.0.0,Costa Rica
Nayara Springs (La Fortuna),10.5030267,-84.6890019,"de, Alajuela Province, San Carlos, Costa Rica","Alajuela, Costa Rica",ChIJhz017uELoI8ReBhBgO1bJek,v1.0.0,Costa Rica
Nicuesa Lodge (Osa),8.661034599999999,-83.2796723,"MP6C+C4 Provincia de Puntarenas, Dos Rios, Costa Rica","Puntarenas, Costa Rica",ChIJudy0WqBppI8RrWE63xxJH_M,v1.0.0,Costa Rica
Osa Peninsula,8.560906,-83.46435509999999,"HG6P+97 Provincia de Puntarenas, Puerto Jiménez, Costa Rica","Puntarenas, Costa Rica",ChIJ88FtKtR7pI8RkFDjduz9n3s,v1.0.1,Costa Rica
Pacuare Lodge (Limón),10.0024731,-83.5345779,"2F28+X5 Limón, Siquirres, Costa Rica","Limón, Costa Rica",ChIJH5guQpEtp48Rk066JA2mgDM,v1.0.0,Costa Rica
Rincon de la Vieja National Park,10.7739423,-85.34998130000001,"QMF2+H2 Provincia de Guanacaste, Liberia, Costa Rica","Guanacaste, Costa Rica",ChIJQ-6xNhZ9dY8RkFBpXUPJYBo,v1.0.0,Costa Rica
"Rio Celeste, Alajuela",10.7119265,-84.92742439999999,"P36F+Q2G San Francisco de alajuela, Río Celeste, Provincia de Alajuela, Guatuso, Costa Rica","Alajuela, Costa Rica",ChIJvZWnO9msCo8RNyx3VY8CiWU,v1.0.0,Costa Rica
Santa Elena Cloud Forest,10.3437168,-84.79611349999999,"86V3+9J, Provincia de Guanacaste, Tilarán, Costa Rica","Guanacaste, Costa Rica",ChIJ_0CuD10aoI8RycGlLQifnNU,v1.0.1,Costa Rica
"Santa Rosa National Park, Guanacaste",10.8379308,-85.7051116,"R7QV+5X Provincia de Guanacaste, Hacienda Murciélago, Costa Rica","Guanacaste, Costa Rica",ChIJU_KhZF2XdY8RZ9fp-5RUCEs,v1.0.0,Costa Rica
Tabacón Thermal Resort & Spa,10.4916133,-84.7220382,"Noreste de Centro de la Fortuna de San Carlos 13 Km, Provincia de Alajuela, Nuevo Arenal, Costa Rica","Alajuela, Costa Rica",ChIJb2ZqvC0JoI8R-npEtvEYLVs,v1.0.0,Costa Rica
Tapantí National Park,9.759040899999999,-83.7836918,"Q658+JG Provincia de Cartago, Paraíso, Costa Rica","Cartago, Costa Rica",ChIJkS4oyNYhoY8RNYhlhi_qk7w,v1.0.0,Costa Rica
Tapirus Lodge (Braulio Carrillo),10.1741605,-83.9140486,"53JH+VQ Tapirus Lodge, Route 32, next to ""Braulio Carrillo National Park"", (45 min from the city of San José). / Ruta 32, junto a ""Parque Nacional Braulio Carrillo"", (45 mins de San José, Limón, Guápiles, Costa Rica","Limón, Costa Rica",ChIJGzUm7RfAoI8ROfmO-2nJeIU,v1.0.0,Costa Rica
"Venecia, San Carlos",10.357123,-84.276558,"9P4F+99Q, Alajuela Province, Venecia, Costa Rica","Alajuela, Costa Rica",ChIJ5d8nbZtioI8RwFeH5CmYz5w,v1.0.0,Costa Rica
Villa Metisse (Tamarindo),10.2926439,-85.8512301,"74VX+3G6, Guanacaste Province, Tamarindo, 50309, Costa Rica","Guanacaste, Costa Rica",ChIJfwt8QmI_no8RGHKzjgr8o5g,v1.0.0,Costa Rica
Chirripó National Park,9.5134327,-83.49462179999999,66XRGG74+95,None,ChIJT6YCHshKoY8RTAC1y4u0wGI,v1.0.0,Costa Rica
Krka National Park Waterfalls,43.8666017,15.9724838,"VX8C+JX Brištane, Croatia","Šibenik-Knin, Croatia",ChIJnTYL684tNRMRODkQ0NXU4RI,v1.0.1,Croatia
Plitvice Lakes,44.8653966,15.5820119,"VH8J+5R Plitvički Ljeskovac, Croatia","Lika-Senj, Croatia",ChIJPQ_Z_mxeYUcRcF6aN_iPGgU,v1.0.1,Croatia
Plitvice Lakes Winter,44.8653966,15.5820119,"VH8J+5R Plitvički Ljeskovac, Croatia","Lika-Senj, Croatia",ChIJPQ_Z_mxeYUcRcF6aN_iPGgU,v1.0.1,Croatia
Plitvice Lower Lakes,44.8653966,15.5820119,"VH8J+5R Plitvički Ljeskovac, Croatia","Lika-Senj, Croatia",ChIJPQ_Z_mxeYUcRcF6aN_iPGgU,v1.0.1,Croatia
Plitvice National Park,44.8653966,15.5820119,"VH8J+5R Plitvički Ljeskovac, Croatia","Lika-Senj, Croatia",ChIJPQ_Z_mxeYUcRcF6aN_iPGgU,v1.0.0,Croatia
Plitvice Upper Lakes,44.8653966,15.5820119,"VH8J+5R Plitvički Ljeskovac, Croatia","Lika-Senj, Croatia",ChIJPQ_Z_mxeYUcRcF6aN_iPGgU,v1.0.1,Croatia
Plitvice Winter Wonderland,44.9037968,15.6020493,"81, 53230, Plitvica Selo, Croatia","Ličko-senjska županija, Croatia",ChIJJd6ty7ZeYUcRnZpmiTLRkRM,v1.0.1,Croatia
Mount Nyiragongo,-1.5220378,29.2494566,"F6HX+5Q Buhumba, Democratic Republic of the Congo","North-Kivu, Democratic Republic of the Congo",ChIJCcwafUav3RkRTmzJAaZ-RG0,v1.0.0,Congo
Faroe Islands,54.9508691,11.989776,"Farøgårdsvej 1, 4793 Bogø By, Denmark",Denmark,ChIJ6-byWpnNUkYRn2NIiHbRCyQ,v1.0.1,Denmark
Secret Bay,15.5455625,-61.4725625,"GGWG+6X5, Ross Blvd, Portsmouth, Dominica","Saint John Parish, Dominica",ChIJlc6n-SvPFIwRveZ2CFPy-nM,v1.0.0,Dominica
Finch Bay Galápagos Hotel (Galápagos),-0.7530106,-90.3118438,"Barrio Punta Estrada, Puerto Ayora, Ecuador","Islas Galápagos, Ecuador",ChIJRxLey05dqpoRMOAGLSZsesc,v1.0.0,Ecuador
Galápagos Islands,-0.383106,-90.4233344,"JH8G+QM3 Isla Baltra, Ecuador","Galápagos Islands, Ecuador",ChIJzQfsO7TZIZARI65d8P5oPvs,v1.0.1,Ecuador
Mashpi Lodge,0.1659857,-78.8782851,"548C+9M La Delicia, Ecuador","Pichincha, Ecuador",ChIJd7Id9nyHKo4RN_3HkslOUNM,v1.0.0,Ecuador
Mount Sinai,28.5392576,33.9749193,"GXQF+PX3, Saint Catherine, South Sinai Governorate 8730062, Egypt","South Sinai, Egypt",ChIJz8HfMlWFVBQR9-tmpwfR9gg,v1.0.1,Egypt
Pyramids of Giza,29.9791669,31.1341998,"X4HM+MM Al Haram, Egypt","Giza, Egypt",ChIJGymPrIdFWBQRJCSloj8vDIE,v1.0.1,Egypt
Siwa Oasis,29.2031708,25.5195451,"6G39+7R7, Siwa, Marsa Matrouh Governorate 5011354, Egypt","Marsa Matrouh, Egypt",ChIJI6Xz6KyvehQRTQea8fhdM28,v1.0.1,Egypt
"The Blue Hole, Dahab",28.5728422,34.5370296,"HGFP+3Q6, Blue Hole Rd, South Sinai Governorate 8773033, Egypt","South Sinai, Egypt",ChIJaT1Yp4c1qxURL7vxxs-19Tk,v1.0.1,Egypt
Valley of the Kings,25.7401643,32.601411,"PJR2+3H Al Qarna, Egypt","Luxor, Egypt",ChIJ1_7etYo9SRQR2qnjovbMj3E,v1.0.1,Egypt
Omo Valley Tribes,5.7806372,36.5716718,"QHJC+7M3, Jinka, Ethiopia","Southern Nations, Nationalities and Peoples, Ethiopia",ChIJ6fObg9WppRcRmo4bLWattn8,v1.0.1,Ethiopia
Simien Mountains,13.492778,38.443611,"FCVV+4C Adi Selam, Ethiopia","Amhara, Ethiopia",ChIJ1TWxZKCRaRYRsv4s_00_g7E,v1.0.1,Ethiopia
Qamea Resort and Spa (Fiji),-16.757126,-179.79521,"66V3+4W Naiviivi, Fiji","Northern Division, Fiji",ChIJgXfedlke4HERaKmUtceFSsw,v1.0.0,Fiji
Calanques National Park,43.2178391,5.4430178,"6C9V+46 Marseille, France","Provence-Alpes-Côte d'Azur, France",ChIJySHEzzW4yRIRniAPBwmntxo,v1.0.0,France
Dunes of Pilat,44.5896525,-1.2133338,"HQQP+VM La Teste-de-Buch, France","Nouvelle-Aquitaine, France",ChIJM_v9TXhiUw0RqEgZetJpCEg,v1.0.1,France
Gorges de l! Hérault,43.7322675,3.5541784,"2-14 Av. Saint-Benoît d'Aniane, 34150 Saint-Guilhem-le-Désert, France","Occitanie, France",ChIJ96BlZXRZsRIRSQSQZXqNJVM,v1.0.0,France
Gorges du Verdon,43.7613593,6.3788372,"Q96H+GG La Palud-sur-Verdon, France","Provence-Alpes-Côte d'Azur, France",ChIJfbkvB735yxIRCeXMqWH0znQ,v1.0.1,France
Gorges du Verdon,43.7613593,6.3788372,"Q96H+GG La Palud-sur-Verdon, France","Provence-Alpes-Côte d'Azur, France",ChIJfbkvB735yxIRCeXMqWH0znQ,v1.0.0,France
Gorges du Verdon,43.7613593,6.3788372,"Q96H+GG La Palud-sur-Verdon, France","Provence-Alpes-Côte d'Azur, France",ChIJfbkvB735yxIRCeXMqWH0znQ,v1.0.1,France
Gorges du Verdon,43.7613593,6.3788372,"Q96H+GG La Palud-sur-Verdon, France","Provence-Alpes-Côte d'Azur, France",ChIJfbkvB735yxIRCeXMqWH0znQ,v1.0.0,France
Lascaux Cave Paintings,45.053919,1.167651,"488 Chem. de la Grotte, 24290 Montignac-Lascaux, France","Nouvelle-Aquitaine, France",ChIJ684VE2ZU_0cRptZOp3QRxhM,v1.0.1,France
Les Baux de Provence,43.743887,4.795495000000001,"9 Imp. du Château, 13520 Les Baux-de-Provence, France","Provence-Alpes-Côte d'Azur, France",ChIJIbJq2F3htRIR4ASX_aUZCAQ,v1.0.0,France
Mont Blanc,45.7590645,4.8337693,"98 Rue du Président Édouard Herriot, 69002 Lyon, France","Auvergne-Rhône-Alpes, France",ChIJY0ml_1Pq9EcRNbz3BnrASeU,v1.0.1,France
Mont Saint-Michel,48.636063,-1.511457,"1 L'Abbaye, 50170 Le Mont-Saint-Michel, France","Normandie, France",ChIJs-6cfNaoDkgR_sMNfuRMg8U,v1.0.1,France
Provence,44.0144936,6.2116438,"D907, 04270 Châteauredon, France","Provence-Alpes-Côte d'Azur, France",ChIJrfXgyd9_9EcRLfa1mDr77kQ,v1.0.0,France
Tour du Mont Blanc (Refuge du Col de Croix du Bonhomme),45.7221619,6.7173772,"PPC8+VX Bourg-Saint-Maurice, France","Auvergne-Rhône-Alpes, France",ChIJd0NvPeldiUcRS4eISazBHb8,v1.0.0,France
The Brando (Tahiti),-17.0227819,-149.5959077,"Onetahi, XCG3+QF7, Arue, French Polynesia","Îles du Vent, French Polynesia",ChIJUWiPJxOnkHYR5op_8Zwx0lI,v1.0.0,French Polynesia
Svaneti Region,42.7352247,42.1689362,"P5P9+3H Jvari, Georgia","Samegrelo-Zemo Svaneti, Georgia",ChIJuUs5c_sFXEARz-X5Z_bmUvs,v1.0.1,Georgia
Bavarian Forest National Park,48.9880011,13.3841033,"X9QM+6J Frauenau, Germany","Bavaria, Germany",ChIJjeMrjNTYdEcRghyziS8v3fE,v1.0.1,Germany
Black Forest,48.2774862,8.185997,"75GP+X9 Gutach, Germany","Baden-Württemberg, Germany",ChIJvZEXLyPskEcR8e2Hrsi-4ts,v1.0.1,Germany
Neuschwanstein Castle,47.557574,10.7498004,"Neuschwansteinstraße 20, 87645 Schwangau, Germany","Bayern, Germany",ChIJXaNOxMr3nEcRo7ud02uGpsg,v1.0.1,Germany
Neuschwanstein Castle,47.557574,10.7498004,"Neuschwansteinstraße 20, 87645 Schwangau, Germany","Bayern, Germany",ChIJXaNOxMr3nEcRo7ud02uGpsg,v1.0.0,Germany
Neuschwanstein Castle,47.557574,10.7498004,"Neuschwansteinstraße 20, 87645 Schwangau, Germany","Bayern, Germany",ChIJXaNOxMr3nEcRo7ud02uGpsg,v1.0.1,Germany
Neuschwanstein Castle,47.557574,10.7498004,"Neuschwansteinstraße 20, 87645 Schwangau, Germany","Bayern, Germany",ChIJXaNOxMr3nEcRo7ud02uGpsg,v1.0.0,Germany
Obersee,47.5170945,12.9861385,"GX8P+RF Schönau am Königssee, Germany","Bavaria, Germany",ChIJUUkVXbnodkcREj-gw3mj_Vs,v1.0.0,Germany
Meteora Monasteries,39.7217044,21.6305896,"Epar.Od. Kalampaka 1, Trikala 421 00, Greece",Greece,ChIJOX8y6K4PWRMR_zK82NStJ3E,v1.0.1,Greece
Mount Olympus,40.08874040000001,22.3589285,"39Q5+FH Litochoro, Greece",Greece,ChIJvQx0u8ITWBMR6aa4jWgilbk,v1.0.1,Greece
Navagio Beach (Ionian Islands),37.8594645,20.6249001,"VJ5F+QX Elation, Greece",Greece,ChIJ4QpUwoxrZxMR7opYdYvoPng,v1.0.0,Greece
Santorini Caldera,36.395556,25.459167,"9FW5+6M Vothonas, Greece",Greece,ChIJ8ZIksA_OmRQRF3Zgm9HaoaQ,v1.0.1,Greece
Ilulissat Icefjord,69.1671113,-50.5366601,98XF5F87+R8,None,ChIJtSIAVW5X7U4RPJS2Ty8mZfQ,v1.0.1,Greenland (Qaasuitsup)
Ilulissat Icefjord Northern Lights,69.0933861,-49.4307336,98XG3HV9+9P,None,ChIJGfeHLMg_7U4Rn6zZLhgAX18,v1.0.1,Greenland (Qaasuitsup)
Ilulissat Icefjord Midnight Sun,69.2171142,-51.12260149999999,"Jørgen Sverdrup'ip Aqq. 10, Ilulissat 3952, Greenland",Greenland,ChIJBxhy4sut8k4RqAU6jSphxRA,v1.0.1,Greenland (Unknown)
Tikal Ruins,17.2220409,-89.6236995,"Templo II, Tikal, Guatemala","Petén, Guatemala",ChIJc8ZiAsumX48RVRE-8jzDyd4,v1.0.1,Guatemala
Tikal Temple IV Sunrise,17.2237533,-89.6301106,"Templo IV, Tikal, Guatemala","Petén, Guatemala",ChIJUd3DoDahX48RiglwMNpYJ3w,v1.0.1,Guatemala
Blue Lagoon,63.8807176,-22.4472964,"VHJ3+73 Grindavik, Iceland","Grindavíkurbær, Iceland",ChIJDd_3r2Yd1kgRbvAWRIl6dPM,v1.0.1,Iceland
Blue Lagoon,63.8807176,-22.4472964,"VHJ3+73 Grindavik, Iceland","Grindavíkurbær, Iceland",ChIJDd_3r2Yd1kgRbvAWRIl6dPM,v1.0.1,Iceland
Blue Lagoon,63.8807176,-22.4472964,"VHJ3+73 Grindavik, Iceland","Grindavíkurbær, Iceland",ChIJDd_3r2Yd1kgRbvAWRIl6dPM,v1.0.1,Iceland
Blue Lagoon,63.8807176,-22.4472964,"VHJ3+73 Grindavik, Iceland","Grindavíkurbær, Iceland",ChIJDd_3r2Yd1kgRbvAWRIl6dPM,v1.0.1,Iceland
Laugavegur Trail,63.7905197,-19.3196173,"Laugavegur, 861, Iceland","Rangárþing eystra, Iceland",ChIJ7aCzGBcq10gRZpcWAbomlr4,v1.0.1,Iceland
Seljalandsfoss,63.61562319999999,-19.9885688,"Seljalandsfoss, 249, 861, Iceland","Rangárþing eystra, Iceland",ChIJFSTv6K0e10gRjRcJUiDmAa4,v1.0.0,Iceland
Eyjafjallajokull Volcano,63.6311912,-19.60861,9CM2J9JR+FH,None,ChIJf3Fy1HEk10gRuAML7whdYeQ,v1.0.0,Iceland
Highlands,64.963051,-19.020835,9CP2XX7H+6M,None,ChIJQ2Dro1Ir0kgRmkXB5TQEim8,v1.0.0,Iceland
Jokulsarlon Beach,64.0784458,-16.2305537,9CP53QH9+9Q,None,ChIJGTg61-zWz0gRqUYB4VnJBc0,v1.0.0,Iceland
Jökulsárlón Glacier Lagoon,64.0784458,-16.2305537,9CP53QH9+9Q,None,ChIJGTg61-zWz0gRqUYB4VnJBc0,v1.0.1,Iceland
Jökulsárlón Glacier Lagoon,64.0784458,-16.2305537,9CP53QH9+9Q,None,ChIJGTg61-zWz0gRqUYB4VnJBc0,v1.0.1,Iceland
Skaftafell Ice Cave,64.0268002,-16.9171873,9CP523GM+P4,None,ChIJ10-7T9g10EgR3Olukc-IOx0,v1.0.0,Iceland
Skogafoss,63.5320523,-19.5113705,9CM2GFJQ+RF,None,ChIJFYylOXY710gRSHn-zR_HYA8,v1.0.0,Iceland
Thingvellir National Park,64.2821725,-21.0764492,99PW7WJF+VC7W,None,ChIJe2kT-x-B1kgR8mKSB4tsdWs,v1.0.1,Iceland
Thorsmork Valley,63.68071999999999,-19.482622,9CM2MGJ8+7X,None,ChIJ_YcNkv8l10gRu2Yt0wffHm4,v1.0.1,Iceland
Vatnajökull Glacier,64.42196899999999,-16.7902035,9CP5C6C5+QW,None,ChIJ26L9HMDZ0UgRBvPLGXYASIk,v1.0.1,Iceland
The Great Himalayan National Park,31.7985414,77.51601339999999,"QGX8+CC Mashyar, Himachal Pradesh, India","Himachal Pradesh, India",ChIJJTeWOVU0BDkRQgQ5XltQMDk,v1.0.1,India (Himachal Pradesh)
Kanha National Park,22.2994956,80.5864278,"7HXP+QH Kanha Kisli F.V., Madhya Pradesh, India","Madhya Pradesh, India",ChIJ8yPdxFsIKjoRTGojx6saE1k,v1.0.1,India (Madhya Pradesh)
Bhimashankar Wildlife Sanctuary,19.0728497,73.5565368,"3HF4+4J Nigdale, Maharashtra, India","Maharashtra, India",ChIJRwkOouFb3TsRrDEIVWr9UUA,v1.0.1,India (Maharashtra)
Taj Mahal,27.1751448,78.0421422,"Karim Nagar, Dharmapuri, Forest Colony, Tajganj, Agra, Uttar Pradesh 282001, India","Uttar Pradesh, India",ChIJbf8C1yFxdDkR3n12P4DkKt0,v1.0.1,India (Uttar Pradesh)
Valley of Flowers,30.7274861,79.60733909999999,"PJG4+XW Ghangaria, Uttarakhand, India","Uttarakhand, India",ChIJ73HXOxWRpzkRXxJsmw8FQh8,v1.0.1,India (Uttarakhand)
Hanging Gardens (Bali),-8.4127542,115.238639,"H6PQ+M87, Buahan, Payangan, Gianyar Regency, Bali 80572, Indonesia","Bali, Indonesia",ChIJXz2mf0Y90i0RuaYn0Rf84hs,v1.0.0,Indonesia (Bali)
Uluwatu (Bali),-8.829143199999999,115.0849069,"53CM+8WQ, Pecatu, South Kuta, Badung Regency, Bali, Indonesia","Bali, Indonesia",ChIJkYHLIPxP0i0RlQTbpxuNuQw,v1.0.0,Indonesia (Bali)
Komodo Island,-8.5850461,119.4411476,"CC7R+XF Komodo, West Manggarai Regency, East Nusa Tenggara, Indonesia","East Nusa Tenggara, Indonesia",ChIJu7uyqFtUtC0REqTrPyybKwY,v1.0.1,Indonesia (East Nusa Tenggara)
Komodo Island Pink Beach,-8.6012033,119.5197902,"9GX9+GW Komodo, West Manggarai Regency, East Nusa Tenggara, Indonesia","East Nusa Tenggara, Indonesia",ChIJZxm99nxWtC0R0F8cpay0Lp8,v1.0.1,Indonesia (East Nusa Tenggara)
Nihi Sumba Island (Indonesia),-9.777630799999999,119.3762222,"69CG+VFF, Hoba Wawi, Wanokaka, West Sumba Regency, East Nusa Tenggara, Indonesia","East Nusa Tenggara, Indonesia",ChIJ3_Tt_a-dTCwRCqPx7ZsYgSs,v1.0.0,Indonesia (East Nusa Tenggara)
Kawah Ijen,-8.0583811,114.243299,"W6RV+J8V, Pt. Perk. Lidjen, Tamansari, Kec. Ijen, Kabupaten Bondowoso, Jawa Timur 68454, Indonesia","Jawa Timur, Indonesia",ChIJB-YKEfJJ0S0RvDlenQLvBHw,v1.0.0,Indonesia (Jawa Timur)
Kawah Ijen Crater,-8.0583811,114.243299,"W6RV+J8V, Pt. Perk. Lidjen, Tamansari, Kec. Ijen, Kabupaten Bondowoso, Jawa Timur 68454, Indonesia","Jawa Timur, Indonesia",ChIJB-YKEfJJ0S0RvDlenQLvBHw,v1.0.1,Indonesia (Jawa Timur)
Mount Bromo,-7.9424936,112.9530122,"Jl. Bromo Tosari No.100, Area Gn. Bromo, Podokoyo, Kec. Tosari, Kabupaten Probolinggo, Jawa Timur 67177, Indonesia","Jawa Timur, Indonesia",ChIJQUp5q6o31i0R3aXS7DYNpK0,v1.0.1,Indonesia (Jawa Timur)
Mount Bromo Sunrise,-8.0218747,112.9524384,"XXH2+7X4 Bromo Tengger Semeru National Park, Ranupani, Jawa Timur, Indonesia","Jawa Timur, Indonesia",ChIJRclpXzY_1i0RyZJZgSLArjY,v1.0.1,Indonesia (Jawa Timur)
Manado,1.4748305,124.8420794,"Jl. P.Sulawesi No.50, Bahu, Kec. Malalayang, Kota Manado, Sulawesi Utara, Indonesia","Sulawesi Utara, Indonesia",ChIJ0w-z__mehzIRgHL3yvsLAwM,v1.0.0,Indonesia (Sulawesi Utara)
Manado,1.4748305,124.8420794,"Jl. P.Sulawesi No.50, Bahu, Kec. Malalayang, Kota Manado, Sulawesi Utara, Indonesia","Sulawesi Utara, Indonesia",ChIJ0w-z__mehzIRgHL3yvsLAwM,v1.0.0,Indonesia (Sulawesi Utara)
Mount Rinjani,-8.4112952,116.4573488,"HFQ4+FW Sembalun Lawang, East Lombok Regency, West Nusa Tenggara, Indonesia","West Nusa Tenggara, Indonesia",ChIJz8wWAoAtzC0RHgrTEb_NAzw,v1.0.1,Indonesia (West Nusa Tenggara)
Misool Eco Resort (Indonesia),-2.244373,130.5557219,"QH44+77 Yellu, Raja Ampat Regency, West Papua, Indonesia","West Papua, Indonesia",ChIJaeiH1qb8Qi0RV_i5xC7DwM4,v1.0.0,Indonesia (West Papua)
Raja Ampat,-1.0320468,130.5052176,"XG94+53 Wailebet, Raja Ampat Regency, West Papua, Indonesia","West Papua, Indonesia",ChIJl3C0zKo-XC0RRN9MTIS9UXg,v1.0.0,Indonesia (West Papua)
Mount Damavand,35.9548356,52.1099798,"X435+WX Gardaneh Sar, Mazandaran Province, Iran","Mazandaran, Iran",ChIJJWBogNfXjz8R9xl_CqMofBA,v1.0.1,Iran
Cliffs of Moher,52.9715368,-9.4308824,"XHC9+JJ Pollboy, County Clare, Ireland","Clare, Ireland",ChIJ84G4C68BW0gR5sC4SJBGOig,v1.0.1,Ireland
Ha'Penny Bridge,53.3463347,-6.263102900000001,"Ha'penny Bridge, Bachelors Walk, North City, Dublin, Ireland","Dublin, Ireland",ChIJFXuSYYMOZ0gRb7gtcRw21Uc,v1.0.1,Ireland
Amalfi Coast,40.6333389,14.6028963,"Lungomare dei Cavalieri di S. Giovanni di Gerusalemme, 46, 84011 Amalfi SA, Italy","Campania, Italy",ChIJoXFMw62VOxMR3ExPyRTP6Ew,v1.0.1,Italy
Amalfi Coast Boat Tour,40.6330765,14.602828,"Lungomare dei Cavalieri di S. Giovanni di Gerusalemme, 46, 84011 Amalfi SA, Italy","Campania, Italy",ChIJP-076EaVOxMRPslqQEHP8L8,v1.0.1,Italy
Amalfi Coast Path of the Gods,40.6298656,14.5399537,"Path of the Gods, Piazza Paolo Capasso, 7, 80051 Agerola NA, Italy","Campania, Italy",ChIJ4coKSfOWOxMRR84g-JLxTp0,v1.0.1,Italy
Blue Grotto,40.5609849,14.2055931,"Via Grotta Azzurra, 25, 80071 Anacapri NA, Italy","Campania, Italy",ChIJffBOEFh3OxMRs1dhoL-srSs,v1.0.1,Italy
Cinque Terre,44.1460939,9.6438793,"Via IV Novembre, 84, 19016 Monterosso al Mare SP, Italy","Liguria, Italy",ChIJe7qrmhvu1BIRrPRwGvHOlf8,v1.0.1,Italy
Dolomitas,46.4102117,11.8440351,"CR6V+3J Rocca Pietore, Province of Belluno, Italy","Veneto, Italy",ChIJMRTS-V9DeEcRu9n4gwcnT2c,v1.0.0,Italy
Giordano Fiori: Campo Di' Fiori (Rome),41.89561,12.4721821,"Via del Pellegrino, 186, 00186 Roma RM, Italy","Lazio, Italy",ChIJIaaS9EVgLxMRQzlDOrW-LGc,v1.0.0,Italy
Grotta Palazzesse,40.9959083,17.2211111,"Via Narciso, 59, 70044 Polignano a Mare BA, Italy","Puglia, Italy",ChIJA5-2ZpPLRxMRGVjK7Uhed5A,v1.0.0,Italy
Lake Como,46.0160486,9.257167599999999,"2784+CV Menaggio, Province of Como, Italy","Lombardy, Italy",ChIJ92ILgjI9hEcR4OGY6OrEQD4,v1.0.1,Italy
Mount Etna,37.751005,14.9934349,"QX2R+CW, 95034 Bronte, Metropolitan city of Catania, Italy","Sicily, Italy",ChIJ66CnFDeqFhMRcCrFpSoECx0,v1.0.1,Italy
Path of the Gods,40.6216598,14.5208185,"Sentiero degli Dei, 80051 Praiano NA, Italy","Campania, Italy",ChIJ8c-WD-aWOxMRrIyRwQriJdA,v1.0.1,Italy
Sant' Agata (Campagna),41.2270692,13.9372395,"Via Sant'Agata, 25, 81037 Sessa Aurunca CE, Italy","Campania, Italy",ChIJ35CXD-DnOhMRnneNm4Hek7M,v1.0.0,Italy
The Dolomites,46.4102117,11.8440351,"CR6V+3J Rocca Pietore, Province of Belluno, Italy","Veneto, Italy",ChIJMRTS-V9DeEcRu9n4gwcnT2c,v1.0.1,Italy
Rockhouse (Negril),18.2649967,-78.3676921,"7J7J+XP5, W End Rd, Negril, Jamaica","Westmoreland Parish, Jamaica",ChIJ0a4LmvYN2Y4RTDa6Ufgwz7A,v1.0.0,Jamaica
Aogashima,32.456994,139.765208,"2202, Aogashima, Tokyo 100-1701, Japan","Tokyo, Japan",ChIJD6aMNvq5amARPHAgnIendb0,v1.0.0,Japan
Arashiyama Bamboo Grove,35.0168187,135.6713013,"Nonomiya Children's Park, 20 Saganonomiyachō, Ukyo Ward, Kyoto, 616-8393, Japan","Kyoto, Japan",ChIJrYtcv-urAWAR3XzWvXv8n_s,v1.0.1,Japan
Asakusa (Old Tokyo),35.7185858,139.7958849,"4-chōme-15-14 Asakusa, Taito City, Tokyo 111-0032, Japan","Tokyo, Japan",ChIJM1N_BMKOGGARZ0DHgTj9hHw,v1.0.0,Japan
Asakusa (Old Tokyo),35.7185858,139.7958849,"4-chōme-15-14 Asakusa, Taito City, Tokyo 111-0032, Japan","Tokyo, Japan",ChIJM1N_BMKOGGARZ0DHgTj9hHw,v1.0.0,Japan
Chuzenji Lake (Nikko),36.7329036,139.4821986,"PFMJ+5V Nikko, Tochigi, Japan","Tochigi, Japan",ChIJVe3KYi2sH2ARcHgBO2EHmhg,v1.0.0,Japan
Ghibli Museum (Tokyo),35.696238,139.5704317,"1-chōme-1-83 Shimorenjaku, Mitaka, Tokyo 181-0013, Japan","Tokyo, Japan",ChIJLYwD5TTuGGARBZKEP5BV4U0,v1.0.0,Japan
Ginkakuji Temple (Kyoto),35.0270213,135.7982058,"2 Ginkakujichō, Sakyo Ward, Kyoto, 606-8402, Japan","Kyoto, Japan",ChIJ4W9CCwUJAWARyauI6BzKiiU,v1.0.0,Japan
Ginza (Tokyo),35.6712228,139.7664859,"1 Chome-7-7 Ginza, Chuo City, Tokyo 104-0061, Japan","Tokyo, Japan",ChIJu2-DAeeLGGARUZipC7OFRmA,v1.0.0,Japan
Gundam Statue (Tokyo),35.624451,139.7754917,"Japan, 〒135-0064 Tokyo, Koto City, Aomi, 1-chōme−1−１０ ダイバーシティ東京プラザ内 2Fフェスティバル広場","Tokyo, Japan",ChIJF6xTyvmJGGARU8t5NIqkNeI,v1.0.0,Japan
Harajuku (Tokyo),35.6699682,139.709008,"4 Chome-15-12 Jingūmae, Shibuya City, Tokyo 150-0001, Japan","Tokyo, Japan",ChIJ5V1T5KKMGGARlTLiBrjIGUg,v1.0.0,Japan
Imperial Palace (Tokyo),35.685175,139.7527995,"1-1 Chiyoda, Chiyoda City, Tokyo 100-0001, Japan","Tokyo, Japan",ChIJTQbYAg2MGGARt22eNwtfGtE,v1.0.0,Japan
Kamikochi Valley,36.2487537,137.6380649,"Kamikōchi-4468 Azumi, Matsumoto, Nagano 390-1516, Japan","Nagano, Japan",ChIJC8XxEJAOHWARBzhcrx9Cbpo,v1.0.1,Japan
Katsura Imperial Villa (Kyoto),34.983991,135.709572,"1-1 Katsuramisono, Nishikyo Ward, Kyoto, 615-8014, Japan","Kyoto, Japan",ChIJ83xvU_cGAWAReHBFa6lh5Uk,v1.0.0,Japan
Mount Fuji,35.3606255,138.7273634,"Japan, 〒401-0320 Yamanashi, Minamitsuru District, Narusawa, 富士山８５４５−１","Yamanashi, Japan",ChIJmcj9QppiGWAR36TzFsn8oaY,v1.0.1,Japan
Mount Fuji,35.3606255,138.7273634,"Japan, 〒401-0320 Yamanashi, Minamitsuru District, Narusawa, 富士山８５４５−１","Yamanashi, Japan",ChIJmcj9QppiGWAR36TzFsn8oaY,v1.0.1,Japan
Mount Fuji,35.3606255,138.7273634,"Japan, 〒401-0320 Yamanashi, Minamitsuru District, Narusawa, 富士山８５４５−１","Yamanashi, Japan",ChIJmcj9QppiGWAR36TzFsn8oaY,v1.0.1,Japan
Mount Fuji,35.3606255,138.7273634,"Japan, 〒401-0320 Yamanashi, Minamitsuru District, Narusawa, 富士山８５４５−１","Yamanashi, Japan",ChIJmcj9QppiGWAR36TzFsn8oaY,v1.0.1,Japan
Mt. Fiji,35.3606255,138.7273634,"Japan, 〒401-0320 Yamanashi, Minamitsuru District, Narusawa, 富士山８５４５−１","Yamanashi, Japan",ChIJmcj9QppiGWAR36TzFsn8oaY,v1.0.0,Japan
Ryogoku (Tokyo),35.6937752,139.7926887,"Japan, 〒130-0026 Tokyo, Sumida City, Ryōgoku, 2-chōme−10−１４ 両国シティコア1F","Tokyo, Japan",ChIJc7JzeEqJGGARUtbtKVoWzhw,v1.0.0,Japan
Sakurajima Volcano,31.583333,130.65,"Japan, 〒891-1420 Kagoshima, Sakurajimaakamizuchō, 桜島 Sakurajima","Kagoshima, Japan",ChIJl-1qAHL1PjURlI5hzxStZZc,v1.0.0,Japan
"Sengakuji Temple, Ronin (Tokyo)",35.6377397,139.7364006,"2-chōme-11-1 Takanawa, Minato City, Tokyo 108-0074, Japan","Tokyo, Japan",ChIJh64KT6uLGGARKx4cxgOaL54,v1.0.0,Japan
"Sensoji Temple, Asakusa (Tokyo)",35.7147651,139.7966553,"2-chōme-3-1 Asakusa, Taito City, Tokyo 111-0032, Japan","Tokyo, Japan",ChIJ8T1GpMGOGGARDYGSgpooDWw,v1.0.0,Japan
Shibuya (Tokyo),35.6619707,139.703795,"1-chōme-18-24 Shibuya, Shibuya City, Tokyo 150-0004, Japan","Tokyo, Japan",ChIJ0Qgx67KMGGARd2ZbObLZHPE,v1.0.0,Japan
Shinjuku (Tokyo),35.6938253,139.7033559,"3 Chome-6-9 Kabukichō, Shinjuku City, Tokyo 160-0022, Japan","Tokyo, Japan",ChIJS_23WSCNGGAR0u8y4o_GYew,v1.0.0,Japan
Takaosan (Tokyo),35.6254126,139.2437385,"2209 Takao-cho, 高尾町 八王子市 東京都 193-0844, Japan","東京都, Japan",ChIJb4ejXn8ZGWAR3y_2HoQLB8c,v1.0.0,Japan
Tokyo National Museum,35.7188351,139.7765215,"Japan, 〒110-0007 Tokyo, Taito City, Uenokōen, 13−９ 東京国立博物館内","Tokyo, Japan",ChIJEX3XFIOOGGAR3XdJvRjWLyM,v1.0.0,Japan
Toshogu Shrine (Nikko),36.7580878,139.5987466,"2301 Sannai, Nikko, Tochigi 321-1431, Japan","Tochigi, Japan",ChIJNSAhU8WmH2ARlA7wenFbUKs,v1.0.0,Japan
Tsukiji Fish Market (Tokyo),35.6649185,139.7702195,"4-chōme-13-11 Tsukiji, Chuo City, Tokyo 104-0045, Japan","Tokyo, Japan",ChIJW2cLzSGLGGARXAKXv6EkbqI,v1.0.0,Japan
Tsukiji Ichiba (Tokyo),35.6659113,139.7700505,"4-chōme-9-5 Tsukiji, Chuo City, Tokyo 104-0045, Japan","Tokyo, Japan",ChIJY7E23t6LGGARcW9PaNpUTRs,v1.0.0,Japan
Winter Lights Festival,35.2357896,138.9250904,"719 Kōyama, Gotemba, Shizuoka 412-0033, Japan","Shizuoka, Japan",ChIJQTYEjaydGWARTTkwbEQxHFI,v1.0.0,Japan
Petra,30.3284544,35.4443622,"8CHV+9P Uum Sayhoun, Jordan","Ma'an, Jordan",ChIJcWA7cPFuARURkSKaZwj5mxk,v1.0.1,Jordan
Petra,30.3284544,35.4443622,"8CHV+9P Uum Sayhoun, Jordan","Ma'an, Jordan",ChIJcWA7cPFuARURkSKaZwj5mxk,v1.0.0,Jordan
Petra,30.3216354,35.4801251,"8FCJ+M32, Wadi Musa, Jordan","Ma'an, Jordan",ChIJsbYaAjBpARURueCjw3tpOuQ,v1.0.1,Jordan
Petra,30.3216354,35.4801251,"8FCJ+M32, Wadi Musa, Jordan","Ma'an, Jordan",ChIJsbYaAjBpARURueCjw3tpOuQ,v1.0.0,Jordan
Petra by Night,30.3228658,35.4863823,"8FFP+3FP, Wadi Musa, Jordan","Ma'an, Jordan",ChIJ2YNqDgVGARURd00YNXpx0DU,v1.0.1,Jordan
The Dead Sea,32.4767389,35.5697717,"FHG9+MW Al-Dżasura, Jordan","Irbid, Jordan",ChIJjU_LerHyHBUR96ou3Zg8zNI,v1.0.1,Jordan
Wadi Mujib,31.4438917,35.8165349,"CRV9+W3F Mujib Dam, Dhiban, Jordan","Madaba, Jordan",ChIJ4Q_MmXBfAxURtSr_RCwyOpM,v1.0.0,Jordan
Wadi Mujib Biosphere Reserve,31.4555868,35.5943687,"FH4V+6P Al Judayyidah, Jordan","Madaba, Jordan",ChIJz9jVo5o4AxUR31EWu_DdFcs,v1.0.1,Jordan
Wadi Mujib Siq Trail,31.4438917,35.8165349,"CRV9+W3F Mujib Dam, Dhiban, Jordan","Madaba, Jordan",ChIJ4Q_MmXBfAxURtSr_RCwyOpM,v1.0.1,Jordan
Wadi Rum Desert,29.555872,35.4076008,"HC45+82 Wadi Rum Village, Jordan","Aqaba, Jordan",ChIJsze106WTABURB12LlZJViOk,v1.0.1,Jordan
Wadi Rum Hot Air Balloon,29.6555683,35.4845317,"Wadi Rum - Disi Street Aqaba, Jordan","محافظة العقبة, Jordan",ChIJR6-yMsnpABURDccPruXzehg,v1.0.1,Jordan
Wadi Rum Stargazing,29.6563953,35.4840974,"Wadi Rum - Disi Street Aqaba, Jordan","محافظة العقبة, Jordan",ChIJUfNoDVqTABURtCvjQS-DlqQ,v1.0.1,Jordan
Amboseli National Park,-2.6526705,37.2606207,"Risa area, Amboseli National Park, Kenya","Kajiado, Kenya",ChIJVVVVVXSeMBgRSfmtadLuBYQ,v1.0.1,Kenya
Cottar’s 1920 Camp,-1.6817522,35.2591967,"8795+7M Keekorok, Kenya","Narok, Kenya",ChIJx9jwJlOiLRgRX5FizABEcyg,v1.0.0,Kenya
Giraffe Manor,-1.375487,36.744676,"Gogo Falls Road, Nairobi, Kenya","Nairobi, Kenya",ChIJSYtZeakFLxgRGp1hfnrKae8,v1.0.1,Kenya
Lake Nakuru Flamingos,-0.4035304,36.0961663,"H3WW+HF Nakuru, Kenya","Nakuru, Kenya",ChIJoYcrTNSaKRgRMY7Ea-ua0oo,v1.0.1,Kenya
Mara Plains Camp (Olare Motoragi Conservancy),-1.3435997,35.1637327,"M547+HF Talek, Kenya","Narok, Kenya",ChIJmTUgCwT3LBgRV-l93UgimAk,v1.0.0,Kenya
Samburu National Reserve,0.6110770999999999,37.5375057,"JG6Q+C2 Samburu, Kenya","Samburu, Kenya",ChIJaXNvPJONiBcR3jsTrjTc4qI,v1.0.1,Kenya
Jeita Grotto,33.9436631,35.64085800000001,"WJVR+F8 Mazraat El Ras, Lebanon","Mount Lebanon, Lebanon",ChIJj6eAWCEXHxUReJuUYhKo8D0,v1.0.1,Lebanon
Avenue of the Baobabs,-20.2504811,44.419695,"Avenue of the Baobabs, RN8, Madagascar","Menabe, Madagascar",ChIJo9ZioxgpXx8RK4cf_TrQets,v1.0.1,Madagascar
Baobab Alley Sunset,-20.2504811,44.419695,"Avenue of the Baobabs, RN8, Madagascar","Menabe, Madagascar",ChIJo9ZioxgpXx8RK4cf_TrQets,v1.0.1,Madagascar
Baobab Avenue,-20.2504811,44.419695,"Avenue of the Baobabs, RN8, Madagascar","Menabe, Madagascar",ChIJo9ZioxgpXx8RK4cf_TrQets,v1.0.1,Madagascar
Baobab Avenue,-20.2504811,44.419695,"Avenue of the Baobabs, RN8, Madagascar","Menabe, Madagascar",ChIJo9ZioxgpXx8RK4cf_TrQets,v1.0.1,Madagascar
Baobab Avenue,-20.2504811,44.419695,"Avenue of the Baobabs, RN8, Madagascar","Menabe, Madagascar",ChIJo9ZioxgpXx8RK4cf_TrQets,v1.0.1,Madagascar
Baobab Avenue,-20.2504811,44.419695,"Avenue of the Baobabs, RN8, Madagascar","Menabe, Madagascar",ChIJo9ZioxgpXx8RK4cf_TrQets,v1.0.1,Madagascar
Tsara Komba Lodge (Nosy Komba Island),-13.4964789,48.35666,"G934+CM3, Anjiabe, Madagascar","Diana, Madagascar",ChIJ3ZMY2qHDEyIRXetbA3bSdo4,v1.0.0,Madagascar
Tsingy Rouge,-12.635687,49.49361099999999,"9F7V+PC Anteninaomby, Madagascar","Diana, Madagascar",ChIJc5-CR5vRaiIR4YGwxTsiTA0,v1.0.1,Madagascar
Tsingy de Bemaraha,-18.9199656,44.7943804,"3QJV+2Q Begara, Madagascar","Melaky, Madagascar",ChIJ3bJNGF3xVx8RK0aCWeScO-I,v1.0.1,Madagascar
Tsingy de Bemaraha,-18.9199656,44.7943804,"3QJV+2Q Begara, Madagascar","Melaky, Madagascar",ChIJ3bJNGF3xVx8RK0aCWeScO-I,v1.0.1,Madagascar
Tsingy de Bemaraha,-18.9199656,44.7943804,"3QJV+2Q Begara, Madagascar","Melaky, Madagascar",ChIJ3bJNGF3xVx8RK0aCWeScO-I,v1.0.1,Madagascar
Tsingy de Bemaraha,-18.9199656,44.7943804,"3QJV+2Q Begara, Madagascar","Melaky, Madagascar",ChIJ3bJNGF3xVx8RK0aCWeScO-I,v1.0.1,Madagascar
Lake Malawi,-11.6701147,34.6856509,5GWP8MHP+X7,None,ChIJHbqilUMXHhkRqD8kUYCOv2M,v1.0.1,Malawi
Borneo Rainforest Canopy Walkway,4.1770286,113.994182,"5XGV+RM Kampung Berjaya, Miri, Sarawak, Malaysia","Sarawak, Malaysia",ChIJE_IMjDpIHzIR4Fge8dQc4Rs,v1.0.1,Malaysia
Datai Langkawi,6.422343799999999,99.6704453,"The Datai Langkawi, Jalan Datai, 07000 Langkawi, Kedah, Malaysia","Kedah, Malaysia",ChIJWXZGfiJxTDAR84FmKVf47oI,v1.0.0,Malaysia
Macrocilix maia,1.6360016,103.6562626,"77, Jalan Cyber 5, Kawasan Perindustrian Senai Fasa 3, 81400 Senai, Johor, Malaysia","Johor, Malaysia",ChIJgaelaQ162jERKphDM4MlLwU,v1.0.0,Malaysia
Mount Kinabalu,6.0753131,116.5588237,"3HG5+4G Kinabalu Park, Ranau, Sabah, Malaysia","Sabah, Malaysia",ChIJyySSXlaiOzIRXsCpwP7DgSI,v1.0.1,Malaysia
Four Seasons Landaa Giraavaru (Maldives),5.2861715,73.1122821,"74P6+GWR, 20097, Maldives","Baa Atoll, Maldives",ChIJvxBVF7O0SjsR-bE6kKLcAQE,v1.0.0,Maldives
Kurumba (Maldives),4.2260708,73.5209426,"6GGC+FCC, Himmafushi, Maldives","Kaafu Atoll, Maldives",ChIJ60xluNGBPzsRl_BVK47JafE,v1.0.0,Maldives
Natural Walkway,-0.5893551,73.07824540000001,"C36H+775 Addu Nature Park, Addu City, Maldives","Addu City, Maldives",ChIJ7-z5-uGhtSQRhYjmuAQ2mT0,v1.0.0,Maldives
Sea of Stars (Vaadhoo Island),5.8614915,72.98841809999999,"VX6Q+HC, Vaadhoo, Maldives","Raa Atoll, Maldives",ChIJ1_xgbHRsazsRF17Jp7JNKfY,v1.0.0,Maldives
Maldives Coral Reefs,4.4820532,73.39402,6JPMF9JV+RJ,None,ChIJJ3vkDmh0QDsR5EG_Bm0BGXY,v1.0.1,Maldives
Eye of Africa,21.1202141,-11.4006842,7CHC4HCX+3P,None,ChIJdWhLMk4fgQ4RbcQMMGfEf8c,v1.0.0,Mauritania (Africa)
Underwater Waterfall,-20.4418581,57.3177967,"H859+74 Le Morne, Mauritius","Rivière Noire, Mauritius",ChIJ7cn_PSptfCER4XfK3JWcJGM,v1.0.0,Mauritius
Cabo San Lucas (Baja California),22.8948129,-109.9152149,"Av. de la Juventud 17, Downtown, Juárez, 23469 Cabo San Lucas, B.C.S., Mexico","Baja California Sur, Mexico",ChIJoQjlifNKr4YRaLiiwWLfpEs,v1.0.0,Mexico (Baja California)
One&Only Palmilla (Cabo San Lucas),23.0068212,-109.7142818,"Km 7.5 Carretera Transpeninsular San Jose Del Cabo Palmilla, Tourist Corridor, 23405 San José del Cabo, B.C.S., Mexico","Baja California Sur, Mexico",ChIJ8cn0LlRQr4YRdMAjeGTMdIw,v1.0.0,Mexico (Baja California)
Parque Nacional Cabo Pulmo,23.4363627,-109.4296296,"CHPC+G4 Cabo Pulmo, BCS, Mexico","Baja California Sur, Mexico",ChIJTVF24YePpYYRDA0vQwyX2qE,v1.0.0,Mexico (Baja California)
Playa Balandra (Baja California),24.3216378,-110.3238169,"A Playa Balandras 1234, Cihuatán, 23054 La Paz, B.C.S., Mexico","Baja California Sur, Mexico",ChIJTyptvWDTr4YRfS5jZTRzhuI,v1.0.0,Mexico (Baja California)
Las Ventanas al Paraiso (Baja California),32.2373445,-116.9296792,"63PC+W4 Las Ventanas, B.C., Mexico","Baja California, Mexico",ChIJuYy_CvEm2YARNnLT6IBWRqY,v1.0.0,Mexico (Baja California)
Valle de Los Cirios (Baja California),30.03043929999999,-115.1700486,"2RJH+5X Los Torotes, B.C., Mexico","Baja California, Mexico",ChIJNafzu5YRL4ERMwqkvZHmQ8E,v1.0.0,Mexico (Baja California)
Barra del Cobre (Chihuahua),27.5339675,-107.8253354,"G5MF+HV La Piedra Volada, Chihuahua, Mexico","Chihuahua, Mexico",ChIJs6TlzbqnwIYR-KH6utyRWJA,v1.0.0,Mexico (Chihuahua)
Naica Mine (Chihuahua),27.8559178,-105.4932019,"NAICA, Victoria 207, 33640 Naica, Chih., Mexico","Chihuahua, Mexico",ChIJQ6SGjY4e64YRL5JA_S1RK7M,v1.0.0,Mexico (Chihuahua)
Four Seasons (México City),19.4231579,-99.1743135,"Av. P.º de la Reforma 500, Juárez, Cuauhtémoc, 06600 Ciudad de México, CDMX, Mexico","Ciudad de México, Mexico",ChIJAWi27E7_0YURT_5T_lCrv2A,v1.0.0,Mexico (Distrito Federal)
Museo de Antropología,19.4260032,-99.1862786,"Av. P.º de la Reforma s/n, Polanco, Bosque de Chapultepec I Secc, Miguel Hidalgo, 11560 Ciudad de México, CDMX, Mexico","Ciudad de México, Mexico",ChIJScjIILQB0oURJMVub-MaI4Q,v1.0.0,Mexico (Distrito Federal)
Panadería Rosetta,19.4199037,-99.16055109999999,"Colima 179, Roma Nte., Cuauhtémoc, 06700 Ciudad de México, CDMX, Mexico","Ciudad de México, Mexico",ChIJ-_GNczr_0YURLJgHYS8ZPMg,v1.0.0,Mexico (Distrito Federal)
Teotihuacan Pyramids,19.6860799,-98.87163609999999,"Guadalupe Victoria 19, Teotihuacan Centro, 55800 Teotihuacán de Arista, Méx., Mexico","Estado de México, Mexico",ChIJyd0BTvnq0YUR2mRxFCPVfsc,v1.0.1,Mexico (México)
Teotihuacan Pyramids,19.6860799,-98.87163609999999,"Guadalupe Victoria 19, Teotihuacan Centro, 55800 Teotihuacán de Arista, Méx., Mexico","Estado de México, Mexico",ChIJyd0BTvnq0YUR2mRxFCPVfsc,v1.0.1,Mexico (México)
Teotihuacan Pyramids,19.6922729,-98.8435035,"Pirámide del Sol, 55800 Teotihuacán de Arista, Méx., Mexico","Estado de México, Mexico",ChIJ-Q-zXoTq0YUROAxtvosnhK0,v1.0.1,Mexico (México)
Teotihuacan Pyramids,19.6922729,-98.8435035,"Pirámide del Sol, 55800 Teotihuacán de Arista, Méx., Mexico","Estado de México, Mexico",ChIJ-Q-zXoTq0YUROAxtvosnhK0,v1.0.1,Mexico (México)
La Casa Que Canta (Zihuatenejo),17.635327,-101.5498233,"Playa La Ropa S/N, Playa la Ropa, 40880 Zihuatanejo, Gro., Mexico","Guerrero, Mexico",ChIJz4pb0T93NIQRp9jmjNYIXTo,v1.0.0,Mexico (Guerrero)
Cuixmala (Jalisco),20.7520298,-105.1609285,"QR2Q+VH, 48284 Ecoterra Paraíso, Jal., Mexico","Jalisco, Mexico",ChIJt9hEZzxJIYQReXZ5Nt6lzNA,v1.0.0,Mexico (Jalisco)
Las Alamandas (Jalisco),19.6222745,-105.1827886,"JRC8+WV Quémaro, Jal., Mexico","Jalisco, Mexico",ChIJHyfgbzK9JIQR5G0fLYE6Tn0,v1.0.0,Mexico (Jalisco)
Lago Camecuaro (Michuacan),19.9026596,-102.2108099,"Lago de Camécuaro, 59750 Mich., Mexico","Michoacán, Mexico",ChIJE7gTFX99LoQRhjSmIO1XsTM,v1.0.0,Mexico (Michoacán)
Four Seasons (Punta Mita),20.780984,-105.5293105,"QFJC+97 Punta Mita, Nayarit, Mexico","Nayarit, Mexico",ChIJNc21EFwUIYQRriTcMmvUNGo,v1.0.0,Mexico (Nayarit)
Imanta (Punta Mita),20.8138071,-105.4769667,"RG7F+G6 Litibu, Nayarit, Mexico","Nayarit, Mexico",ChIJWQmUEF4UIYQRAREewilu0RE,v1.0.0,Mexico (Nayarit)
Playa Escondida (Nayarit),20.736361,-105.406045,"PHPV+GH La Cruz de Huanacaxtle, Nayarit, Mexico","Nayarit, Mexico",ChIJL0fVP5tBIYQRC63uKyhHkxw,v1.0.0,Mexico (Nayarit)
Cartesiano (Puebla),19.0409943,-98.19422089999999,"Calle 3 Ote. 610, Centro histórico de Puebla, 72000 Heroica Puebla de Zaragoza, Pue., Mexico","Puebla, Mexico",ChIJU5fssujAz4URNkz894vF-HE,v1.0.0,Mexico (Puebla)
Cenote Dos Ojos,20.3247026,-87.39131189999999,"Carretera Cancún Tulum kilómetro 244+500 metros ejido Jacinto Pat entrada dos ojos comunidad muuchximbal área científica, 77774 Q.R., Mexico","Quintana Roo, Mexico",ChIJhxZ9SUUtTo8Rwp_S3fQ7Nnk,v1.0.1,Mexico (Quintana Roo)
Mukan Resort (Yucatán),20.6330607,-87.06711519999999,"C. 32 Nte. 140, Gonzalo Guerrero, 77720 Playa del Carmen, Q.R., Mexico","Quintana Roo, Mexico",ChIJe2EpKJdDTo8RFHCDweSJeZU,v1.0.0,Mexico (Quintana Roo)
Museo de Esculturas (Isla Mujeres),21.2017326,-86.71081579999999,"Isla Mujeres, 77403 Q.R., Mexico","Quintana Roo, Mexico",ChIJceKCiKglTI8RpG8kLwsxkKM,v1.0.0,Mexico (Quintana Roo)
Sian Ka'an Biosphere Reserve,19.8509509,-87.63934309999999,"Calle 88 no. 714 x 72 a y 74 Sian Kaan I, caucel, 77132 Q.R., Mexico","Quintana Roo, Mexico",ChIJRbIUlxYJUI8RLuVQChePHQQ,v1.0.1,Mexico (Quintana Roo)
Viceroy (Riviera Maya),20.6651496,-87.03342339999999,"Camino Vecinal, Xcalacoco, 77727 Playa del Carmen, Q.R., Mexico","Quintana Roo, Mexico",ChIJlSI3qnJdTo8Ras_Y8Jp-U7M,v1.0.0,Mexico (Quintana Roo)
San Luis Potosí (San Luis Potosí),22.1520892,-100.9733024,"Av. Constitución 410, Centro Historico, 78000 San Luis Potosí, S.L.P., Mexico","San Luis Potosí, Mexico",ChIJefusBQCiKoQRV4Lhrynu0g4,v1.0.0,Mexico (San Luis Potosí)
Cenote Ik Kil,20.6610138,-88.550438,"Merida - Valladolid Km. 122, 97753 X-Calakoop, Yuc., Mexico","Yucatán, Mexico",ChIJl11soik_UY8RSO0deqb8H8w,v1.0.1,Mexico (Yucatán)
Cenote Ik Kil (Yucatán),20.6610138,-88.550438,"Merida - Valladolid Km. 122, 97753 X-Calakoop, Yuc., Mexico","Yucatán, Mexico",ChIJl11soik_UY8RSO0deqb8H8w,v1.0.0,Mexico (Yucatán)
Cenotes (Yucatán),20.6737044,-89.77315089999999,"M6FG+FP San Antonio Mulix, Yuc., Mexico","Yucatán, Mexico",ChIJAzSNF9Q9Vo8RJUq-XTHx1Cg,v1.0.0,Mexico (Yucatán)
The Cenotes of Yucatán,20.6988823,-88.1245639,"MVXG+H5 Tikuch, Yuc., Mexico","Yucatán, Mexico",ChIJgUUxAkwLUY8R9jmV2-1HzpU,v1.0.1,Mexico (Yucatán)
Gobi Desert,43.500024,104.2861116,"G72P+2C Dalanzadgad, Mongolia","Ömnögovi, Mongolia",ChIJ7Xq12vIEJzYR0YKP9HQTU9k,v1.0.1,Mongolia
Altai Mountains,49.0,89.0,8MXF2222+22,None,ChIJzx7nEP9qtEIR6rzK6CNJ7zU,v1.0.0,Mongolia
Kotor Old Town,42.4238904,18.7746011,"CQFF+HR5, Put do Svetog Ivana, Kotor, Montenegro","Opština Kotor, Montenegro",ChIJvRtkeRszTBMRmrtDZNAXhU4,v1.0.1,Montenegro
Mount Toubkal,31.0600719,-7.9147482,"336P+24 Tissalday, Morocco","Souss-Massa, Morocco",ChIJ0W755P0MsA0R-ddFJMT0NHk,v1.0.1,Morocco
Sahara Desert Camel Trek,31.1401771,-4.0252892,"4XQF+XVC, Merzouga, Morocco","Drâa-Tafilalet, Morocco",ChIJia96HPc-lw0RuazzFSEpUZA,v1.0.1,Morocco
Lake Inle,20.5862914,96.91018059999999,"HWP6+G3 Khaungtaing, Myanmar (Burma)","Shan, Myanmar (Burma)",ChIJV6fW-o_tzjARZWxBt8uZ5eg,v1.0.1,Myanmar (Burma)
Deadvlei,-24.7592732,15.2923894,"67RR+7X Sossusvlei, Namibia","Hardap, Namibia",ChIJJcppUrgOchwRe3YwQ9UF5ZE,v1.0.1,Namibia
Deadvlei,-24.7592732,15.2923894,"67RR+7X Sossusvlei, Namibia","Hardap, Namibia",ChIJJcppUrgOchwRe3YwQ9UF5ZE,v1.0.0,Namibia
Deadvlei,-24.7592732,15.2923894,"67RR+7X Sossusvlei, Namibia","Hardap, Namibia",ChIJJcppUrgOchwRe3YwQ9UF5ZE,v1.0.1,Namibia
Deadvlei,-24.7592732,15.2923894,"67RR+7X Sossusvlei, Namibia","Hardap, Namibia",ChIJJcppUrgOchwRe3YwQ9UF5ZE,v1.0.0,Namibia
Sossusvlei Deadvlei,-24.7592732,15.2923894,"67RR+7X Sossusvlei, Namibia","Hardap, Namibia",ChIJJcppUrgOchwRe3YwQ9UF5ZE,v1.0.1,Namibia
"Dune 45, Namib Desert",-24.7277568,15.4725668,5F7Q7FCF+V2,None,ChIJn1HyjL5zchwRnughWHtQo5o,v1.0.1,Namibia
Namib Sand Sea,-23.1624064,14.454707,5F8PRFQ3+2V,None,ChIJw0QEEpLddhwRDL5jwEAMMCM,v1.0.1,Namibia
Sossusvlei Dunes,-24.7277568,15.4725668,5F7Q7FCF+V2,None,ChIJn1HyjL5zchwRnughWHtQo5o,v1.0.1,Namibia
Sossusvlei Dunes,-24.7277568,15.4725668,5F7Q7FCF+V2,None,ChIJn1HyjL5zchwRnughWHtQo5o,v1.0.1,Namibia
Sossusvlei Dunes,-24.7277568,15.4725668,5F7Q7FCF+V2,None,ChIJn1HyjL5zchwRnughWHtQo5o,v1.0.1,Namibia
Sossusvlei Dunes,-24.7277568,15.4725668,5F7Q7FCF+V2,None,ChIJn1HyjL5zchwRnughWHtQo5o,v1.0.1,Namibia
Sossusvlei Dunes,-24.7277568,15.4725668,5F7Q7FCF+V2,None,ChIJn1HyjL5zchwRnughWHtQo5o,v1.0.1,Namibia
Sossusvlei Dunes,-24.7277568,15.4725668,5F7Q7FCF+V2,None,ChIJn1HyjL5zchwRnughWHtQo5o,v1.0.1,Namibia
Sossusvlei Dunes,-24.7277568,15.4725668,5F7Q7FCF+V2,None,ChIJn1HyjL5zchwRnughWHtQo5o,v1.0.1,Namibia
Sossusvlei Dunes,-24.7277568,15.4725668,5F7Q7FCF+V2,None,ChIJn1HyjL5zchwRnughWHtQo5o,v1.0.1,Namibia
Sossusvlei Hot Air Ballooning,-24.6737777,15.8074747,5F7Q8RG4+FX,None,ChIJ3TV-lQqHchwR5s9N_xX5lFg,v1.0.1,Namibia
Sossusvlei Hot Air Ballooning,-24.6737777,15.8074747,5F7Q8RG4+FX,None,ChIJ3TV-lQqHchwR5s9N_xX5lFg,v1.0.1,Namibia
Mount Everest Base Camp,28.0022779,86.8528655,"2V33+24J Everest Base Camp Helipad, Everest Base Camp Trail, Khumjung 56000, Nepal","Koshi, Nepal",ChIJ50uYejKp6TkRdSMhehlHUB8,v1.0.1,Nepal
Mount Everest Flightseeing,27.9881206,86.9249751,7MV8XWQF+6X,None,ChIJvZ69FaJU6DkRsrqrBvjcdgU,v1.0.1,Nepal
Ecoduct,52.83255800000001,6.4769064,"Ecoduct Dwingelderveld, E232, 7963 RA Spier, Netherlands","Drenthe, Netherlands",ChIJ6xwfRg0XyEcRWhnBjQDFvXM,v1.0.0,Netherlands
Keukenhof Gardens,52.2697087,4.5469336,"Keukenhof, Stationsweg 166A, 2161 AM Lisse, Netherlands","Zuid-Holland, Netherlands",ChIJHW-ANATCxUcRgGI4ctqwfQM,v1.0.1,Netherlands
Abel Tasman Coast Track,-40.8652022,173.0175342,"Abel Tasman Coast track, Tasman 7183, New Zealand","Tasman, New Zealand",ChIJ23i5uth7PG0RXStU9Olubi8,v1.0.1,New Zealand
Cathedral Cove,-36.827728,175.7900487,"Mares Leg Cove, Hahei 3591, New Zealand","Waikato, New Zealand",ChIJ_6RpuBlDcm0RUJxZZmHvACo,v1.0.0,New Zealand
Fiordland Milford Track,-44.8138241,167.7860361,"Milford Track, Southland 9679, New Zealand","Southland, New Zealand",ChIJz0Iqwq_Q1akRbrPO3ApQng0,v1.0.1,New Zealand
Glowworm Caves (Waitomo),-38.26070139999999,175.1036062,"39 Waitomo Village Road, Waitomo Caves 3977, New Zealand","Waikato, New Zealand",ChIJfVTj8363bG0R8p8w_eGxLJI,v1.0.0,New Zealand
Milford Sound,-44.6414024,167.8973801,"9V5W+CX Milford Sound, Southland, New Zealand","Southland, New Zealand",ChIJ4UlLuk3g1akRAN5kq4bvACo,v1.0.1,New Zealand
Milford Sound Overnight Cruise,-44.6681697,167.9270682,"Milford Sound Visitor Terminal, Milford Sound 9679, New Zealand","Southland, New Zealand",ChIJr01RHJDd1akRbsP-vbjcEIE,v1.0.1,New Zealand
Mount Cook Hooker Valley Track,-43.71812569999999,170.0939684,"227 Hooker Valley Road, Aoraki Mount Cook National Park 7999, New Zealand","Canterbury, New Zealand",ChIJ3dRpHTRLKm0RKcgIu1qEvGM,v1.0.1,New Zealand
Mount Ngauruhoe (Mount Doom),-39.1568642,175.6321486,"RJVJ+7V Tongariro, Manawatū-Whanganui, New Zealand","Manawatū-Whanganui, New Zealand",ChIJ2w5y7Ceqa20RWdzjNa-dmw0,v1.0.1,New Zealand
Mount Taranaki,-39.2967702,174.0633993,"P337+79 Ōpunake, Taranaki, New Zealand","Taranaki, New Zealand",ChIJjdlHd1GwFW0R-Q7tsgVpvbQ,v1.0.1,New Zealand
Rakiura Track,-46.8705441,168.0611585,"Rakiura Track, Southland 9818, New Zealand","Southland, New Zealand",ChIJ1VkXkqFfzakRswt4UWHYiPQ,v1.0.1,New Zealand
Waitangi Treaty Grounds,-35.2677559,174.0807225,"Waitangi Treaty Grounds (Bay of Islands, Tau Henare Drive, Waitangi 0293, New Zealand","Northland, New Zealand",ChIJiaAMt7-6C20Rg-HgpqHzGAs,v1.0.1,New Zealand
Waitomo Glowworm Caves,-38.26070139999999,175.1036062,"39 Waitomo Village Road, Waitomo Caves 3977, New Zealand","Waikato, New Zealand",ChIJfVTj8363bG0R8p8w_eGxLJI,v1.0.1,New Zealand
Fiordland National Park,-45.4084942,167.3591318,4V69H9R5+JM,None,ChIJqyozYUsO1KkRurckveUzL_Y,v1.0.1,New Zealand
Mount Cook (Aoraki),-43.5949749,170.1417883,4V8GC44R+2P,None,ChIJyzN1lfTLK20RZeiD_UXKWSQ,v1.0.1,New Zealand
Jicaro Ecoresort (Lago de Nicaragua),11.8864188,-85.90153289999999,"V3PX+H9 El Encanto, Nicaragua","Granada, Nicaragua",ChIJbQAAUCtzdI8RKeDumqe5-Fg,v1.0.0,Nicaragua
Saipan Islands,15.1850483,145.7467259,"1359 Acho Street Caller Box 100007, Papago, Saipan 96950, CNMI","Saipan, Northern Mariana Islands",ChIJ3atBDSyx2GYRD_h0mQheL2Y,v1.0.0,Northern Mariana Islands
Lofoten Northern Lights,67.88056139999999,12.9826432,"Å-veien 45, 8392 Sørvågen, Norway","Nordland, Norway",ChIJm3jvOdAk3kURV6Zsa3nQHc4,v1.0.1,Norway
Northern Lights in Tromsø,69.6525533,18.9529214,"Skolegata 43, 9008 Tromsø, Norway","Troms, Norway",ChIJozvGjlLExEURCJ7B-MBfiDE,v1.0.1,Norway
Preikestolen (Stavanger),58.98641,6.190439599999999,"X5PR+H5 Strand, Norway","Rogaland, Norway",ChIJCetU9hvVO0YRi7ejv73mg0o,v1.0.0,Norway
Trolltunga (Troll's Tongue),60.13321790000001,6.754583500000001,"E 134 - Dyrskar 5760, 5760 Røldal, Norway","Vestland, Norway",ChIJncBvG3uZPkYRkqZ47AVU4G4,v1.0.1,Norway
Lofoten Islands,67.9931452,13.6397069,9FVMXJVQ+7V,None,ChIJKejz42o_3kURXTz8S2eRnGE,v1.0.1,Norway
Wadi Shab,22.8128429,59.17731539999999,R57G+4W سيماء، Oman,"محافظة شمال الشرقية, Oman",ChIJqzab6Z31kD4RZq8Nem5HfVc,v1.0.1,Oman
K2 Mountain,35.8799875,76.5151001,8J7RVGH8+X2,None,ChIJ20r_163V-jgRd9Xp-HtkMcU,v1.0.1,Pakistan
Palau Jellyfish Lake,7.1610415,134.3763699,"596G+CG9, Koror, Palau","Koror, Palau",ChIJ5dxVQz-q1TIR4qUPpy5VqaY,v1.0.1,Palau
Coiba National Park,7.423262499999999,-81.7549219,"C6FW+824 El Trapiche, Panama","Veraguas, Panama",ChIJd8ezpRU5sI8RqnfEMQnNHGc,v1.0.0,Panama
Isla Palenque Resort (Golfo de Chirriquí),8.1795104,-82.2533658,"Isla Palenque, Boca Chica, Provincia de Chiriquí, Panama","Chiriquí, Panama",ChIJUY_J_1FipY8RJPoGQYkGK88,v1.0.0,Panama
Ayacucho,-13.1638737,-74.22356409999999,"urb. Jardín Mz. G Lt. 11, Ayacucho 05003, Peru","Ayacucho, Peru",ChIJ6b6y9Yh9EpERbqFwOoTLs-k,v1.0.0,Peru
Cañón del Colca,-15.6574463,-72.17714629999999,"8RVF+24 Valle de Canco, Peru","Arequipa, Peru",ChIJ_____zTnaZERAs-hs9HJi_Q,v1.0.0,Peru
Chan Chan,-8.1055519,-79.0746128,"VWVG+Q5C, Huanchaco, Peru","La Libertad, Peru",ChIJxYphrFo8rZERKahyG4KUm8s,v1.0.0,Peru
Choquequirao,-13.3950071,-72.87222489999999,"J43H+X4 Caserio Marampata, Peru","Cuzco, Peru",ChIJv6gQbsYNbZERwTQ7D_vEhN8,v1.0.0,Peru
Colca Canyon,-15.6574463,-72.17714629999999,"8RVF+24 Valle de Canco, Peru","Arequipa, Peru",ChIJ_____zTnaZERAs-hs9HJi_Q,v1.0.1,Peru
Huacachina,-14.0874587,-75.762586,"W67P+2X7, Huacachina 11000, Peru","Ica, Peru",ChIJAbEACAHjEJERI0KK0AHgaxM,v1.0.0,Peru
Huancaya,-12.2037852,-75.79891669999999,"Q6W2+FCV, Huancaya 15796, Peru","Gobierno al de Lima, Peru",ChIJb5BagyIcD5ERqs8goXdB3t4,v1.0.0,Peru
Huayna Picchu,-13.1562092,-72.5464495,"RFV3+GC Aguas Calientes, Peru","Cusco, Peru",ChIJKRkXnfOabZER1mnqn_9QBho,v1.0.1,Peru
Inkaterra Hacienda Concepcion (Amazonas),-12.6066519,-69.08110920000001,"9WV9+8H Sandoval, Peru","Madre de Dios, Peru",ChIJAwT_5BBSe5ERdyZpg-B4UcA,v1.0.0,Peru
Inkaterra Hacienda Urubamba (Valle Sagrado),-13.32223,-72.0557546,"MWHV+4M Huayllabamba, Peru","Cusco, Peru",ChIJh8JUfSTcbZER8JJpI17vMq0,v1.0.0,Peru
Inkaterra Machu Picchu (Machu Picchu),-13.1576835,-72.5226461,"Ca. Inkill 104, Aguas Calientes 08681, Peru","Cuzco, Peru",ChIJ0zIUloGabZERCO3m0NHIy4A,v1.0.0,Peru
Laguna 69,-9.010285699999999,-77.6124416,"X9QQ+V2 Vaquería, Peru","Áncash, Peru",ChIJUYzikBxLqZERPcsPcyXP98s,v1.0.0,Peru
Lake Titicaca Floating Islands,-15.8177558,-69.9719992,"52JH+V6 Puno, Peru","Puno, Peru",ChIJOYnlZQlpXZER9_nUF6-rYg4,v1.0.1,Peru
Lake Titicaca Floating Islands,-15.8177558,-69.9719992,"52JH+V6 Puno, Peru","Puno, Peru",ChIJOYnlZQlpXZER9_nUF6-rYg4,v1.0.1,Peru
Lake Titicaca Reed Boats,-15.814021,-69.97391499999999,"52PG+9C Puno, Peru","Puno, Peru",ChIJfTVEoE9pXZERxiEmIBzgsPg,v1.0.1,Peru
Lake Titicaca Reed Boats,-15.814021,-69.97391499999999,"52PG+9C Puno, Peru","Puno, Peru",ChIJfTVEoE9pXZERxiEmIBzgsPg,v1.0.1,Peru
Machine Picchu,-13.1631988,-72.5452621,"RFP3+PV Aguas Calientes, Peru","Cusco, Peru",ChIJVVVViV-abZERJxqgpA43EDo,v1.0.0,Peru
Machu Picchu,-13.1571289,-72.5225276,"RFVG+4XH, Aguas Calientes 08681, Peru","Cuzco, Peru",ChIJbyTuvYGabZERUhDFJOs_G-4,v1.0.1,Peru
Machu Picchu,-13.1571289,-72.5225276,"RFVG+4XH, Aguas Calientes 08681, Peru","Cuzco, Peru",ChIJbyTuvYGabZERUhDFJOs_G-4,v1.0.1,Peru
Machu Picchu,-13.1631988,-72.5452621,"RFP3+PV Aguas Calientes, Peru","Cusco, Peru",ChIJVVVViV-abZERJxqgpA43EDo,v1.0.1,Peru
Machu Picchu,-13.1631988,-72.5452621,"RFP3+PV Aguas Calientes, Peru","Cusco, Peru",ChIJVVVViV-abZERJxqgpA43EDo,v1.0.1,Peru
Machu Picchu,-13.1631988,-72.5452621,"RFP3+PV Aguas Calientes, Peru","Cusco, Peru",ChIJVVVViV-abZERJxqgpA43EDo,v1.0.1,Peru
Machu Picchu,-13.1631988,-72.5452621,"RFP3+PV Aguas Calientes, Peru","Cusco, Peru",ChIJVVVViV-abZERJxqgpA43EDo,v1.0.1,Peru
Vinicunca,-13.8701658,-71.3029901,"4MHW+WR Uchullujllo, Peru","Cuzco, Peru",ChIJG1Gp8tjmbpERNiY87zT6mRk,v1.0.0,Peru
Banaue Rice Terraces,16.9345369,121.1363619,"W4MP+PJV, Batad Trail, Banaue, Ifugao, Philippines","Cordillera Administrative, Philippines",ChIJU94yZT0okDMRXzcOhVSnOp4,v1.0.1,Philippines
"Cambugahay Falls, Siquijor Island",9.139896499999999,123.6266693,"4JQG+XM3, Siquijor Circumferential Road, Lazi, Siquijor, Philippines","Central Visayas, Philippines",ChIJn1zLoigjqzMR40KNXYJk7b0,v1.0.0,Philippines
Canlaob River Canyon,9.78516,123.3730193,"Q9PF+36 Alegría, Cebu, Philippines","Central Visayas, Philippines",ChIJq6qqqmqUqzMR8xlQupPoibc,v1.0.0,Philippines
Chocolate Hills,9.829708,124.1396756,"R4HQ+VV Carmen, Bohol, Philippines","Central Visayas, Philippines",ChIJ93JdpqE9qjMRZ90HM2qFnNg,v1.0.1,Philippines
Palawan Islands,9.4462305,118.3929417,"Nico's haven, Palawan Island, C9WV+F5W, Narra, Palawan, Philippines","MIMAROPA, Philippines",ChIJcQU_alOOyjMRoCacoKxe-FY,v1.0.0,Philippines
Białowieża Forest,52.7228852,23.6555674,"PMF4+56 Hajnówka, Poland","Podlaskie Voivodeship, Poland",ChIJyT9YHzRAIEcRPCg34KZdRUo,v1.0.1,Poland
Maidera Island,32.76070740000001,-16.9594723,"Q26R+76 Curral das Freiras, Portugal","Madeira, Portugal",ChIJ40XOa1pcYAwRPYyggoxRO-0,v1.0.0,Portugal
Quinta de Regaleira,38.7963069,-9.3960244,"Quinta da Regaleira, R. Barbosa du Bocage 5, 2710-567 Sintra, Portugal","Lisboa, Portugal",ChIJe9TGZMLaHg0RI2WK1BbF4b8,v1.0.0,Portugal
Sintra Cascais National Park (Cascais),38.7767498,-9.4202212,"QHGH+MW Sintra, Portugal","Lisbon, Portugal",ChIJz3Vzb_fPHg0R_vVQ1CtkIrw,v1.0.0,Portugal
The Algarve Coast,37.2555153,-8.3964938,"7J43+6C Silves, Portugal","Faro, Portugal",ChIJ78_RVe5UBQ0RRQ6REi5l4oA,v1.0.1,Portugal
The Azores,37.7412488,-25.6755944,"R. Direita Santa Catarina 3, 9500-187 Ponta Delgada, Portugal","Açores, Portugal",ChIJBTvkER5_RgsRHQzOS2cbkeI,v1.0.1,Portugal
Dorado Beach (Ritz-Carlton),18.4753725,-66.3004613,"100 Dorado Bch Dr, Dorado, 00646, Puerto Rico","Dorado, Puerto Rico",ChIJN20LDJoUA4wRkAKMm_EUmh4,v1.0.0,Puerto Rico
Loango National Park,-4.6302254,11.8350062,"9R9P+W22, Loango, Republic of the Congo","Kouilou, Republic of the Congo",ChIJlw7s1oHHYBoRSD3sfFVVamA,v1.0.0,Congo
Danube Delta Biosphere Reserve,45.0760245,29.3973905,"39GW+CX Caraorman, Romania","Tulcea, Romania",ChIJTYNlLjOVuUARrg_twMEBkAg,v1.0.1,Romania
Transfagarasan Road,45.45337199999999,24.6250337,"Transfăgărășan, Buda, Romania","Județul Argeș, Romania",ChIJr5ZMOKrdTEcRN4dgvXp-UVA,v1.0.0,Romania
Lake Baikal (Summer),51.8753338,104.7913104,"Байкальская ул., 11, Байкал (слюдянский, Irkutskaya oblast', Russia, 665921","Irkutskaya oblast', Russia",ChIJvYXl_ZN9qF0RT83tTrrWP7M,v1.0.1,Russia (Irkutskaya)
Lake Baikal Summer,51.8753338,104.7913104,"Байкальская ул., 11, Байкал (слюдянский, Irkutskaya oblast', Russia, 665921","Irkutskaya oblast', Russia",ChIJvYXl_ZN9qF0RT83tTrrWP7M,v1.0.1,Russia (Irkutskaya)
Lake Baikal Winter Trek,51.8753338,104.7913104,"Байкальская ул., 11, Байкал (слюдянский, Irkutskaya oblast', Russia, 665921","Irkutskaya oblast', Russia",ChIJvYXl_ZN9qF0RT83tTrrWP7M,v1.0.1,Russia (Irkutskaya)
Northern Lake Baikal,51.8753338,104.7913104,"Байкальская ул., 11, Байкал (слюдянский, Irkutskaya oblast', Russia, 665921","Irkutskaya oblast', Russia",ChIJvYXl_ZN9qF0RT83tTrrWP7M,v1.0.1,Russia (Irkutskaya)
Mount Elbrus,43.3499382,42.4453301,"8CXW+X4 Terskol, Kabardino-Balkarian Republic, Russia","Kabardino-Balkarian Republic, Russia",ChIJf3VOXNcKWUAR72GQmJkvs5M,v1.0.1,Russia (Kabardino-Balkarian)
Kamchatka Peninsula,56.1327377,159.5314398,9R8X4GMJ+3H,None,ChIJaR-gprLiBFkRjbG7hrr8wEw,v1.0.1,Russia (Kamchatka Krai)
Lake Baikal (Siberia),53.5587003,108.1649965,9P5CH557+FX,None,ChIJc9iNz-19q10RSTOFxRKUSPI,v1.0.0,Russia (Siberia)
Jade Mountain (St. Lucia),13.8637704,-61.07621759999999,"VW7F+GG Mamin, Saint Lucia","Soufriere, Saint Lucia",ChIJvcHvoryJQIwRx3eDuIFTsyA,v1.0.0,Saint Lucia
Viceroy Sugar Beach (St. Lucia),13.8278433,-61.0612116,"Val Des Pitons Forbidden Beach La Baie de Silence, St Lucia","Soufriere, Saint Lucia",ChIJeQaww0KJQIwRJxWGpAY57ig,v1.0.0,Saint Lucia
North Island (Seychelles),-4.394964799999999,55.2452567,"Ile Du Nord North Island, Seychelles","La Digue, Seychelles",ChIJAyAvjpIW4CIRJuXVW-YyG9Y,v1.0.0,Seychelles
Seychelles Beaches,-4.679574,55.491977,"8FCR+5Q Providence, Seychelles","Cascade, Seychelles",ChIJO62-cP0hXCIR99pJ06DQ0zI,v1.0.1,Seychelles
Six Sense Zil Pasyon,-4.3190832,55.8670463,"MVJ8+9R La Digue, Seychelles","La Digue, Seychelles",ChIJ5_65BEKNHyMRgVnaYC8DrOA,v1.0.0,Seychelles
Lake Bled,46.363598,14.0938053,"937V+CG Bled, Slovenia","Radovljica, Slovenia",ChIJIeTZuTmRekcRrAcB3TGDzYM,v1.0.1,Slovenia
Mount Triglav,46.378311,13.8368697,"9RHP+8P Mojstrana, Slovenia","Jesenice, Slovenia",ChIJ-ZW7qwyJekcRwwQDXl-tvco,v1.0.1,Slovenia
Triglav National Park,46.34258759999999,13.7991331,"8QVX+2M Bohinjsko jezero, Slovenia","Radovljica, Slovenia",ChIJ7R5664qKekcR8HAyUR34AA8,v1.0.0,Slovenia
Anuta Island,-11.6333333,169.8333333,5VWF9R8M+M8,None,ChIJxyAfbQnEVW4RY40wd0Z8K0Y,v1.0.0,Solomon Islands
Blyde River Canyon,-24.591198,30.8128859,"CR57+G5 Leroro-A, South Africa","Mpumalanga, South Africa",ChIJsVd82s1Wwh4RLVL-jG90QrU,v1.0.1,South Africa
Cape of Good Hope,-34.3568425,18.4739882,"JFVF+7H Cape Point, Cape Town, South Africa","Western Cape, South Africa",ChIJZz_grPwizB0R6aJ8t_FcKDU,v1.0.1,South Africa
Drakensberg Amphitheatre,-28.7594444,28.9122222,"6WR6+6V Bonjaneni, South Africa","KwaZulu-Natal, South Africa",ChIJhQxCfinE8h4Rbzp-1fCZifc,v1.0.1,South Africa
Royal Malewane (South Africa),-24.5179561,31.1642183,"F5J7+RM Amanda, South Africa","Limpopo, South Africa",ChIJNUUod7YGwx4RoVNUtUjTEmE,v1.0.0,South Africa
Table Mountain,-33.966825,18.4255629,"Unnamed Rd, Table Mountain (Nature Reserve), Cape Town, Table Mountain (Nature Reserve), Cape Town, South Africa","Western Cape, South Africa",ChIJH7aysfdnzB0RtP4Njfl3218,v1.0.1,South Africa
Kruger Panorama Route,-23.9883848,31.5547402,5G8H2H63+JV,None,ChIJoaA1xZZIwx4Re3hnH9NOUJo,v1.0.1,South Africa
Kruger Safari,-23.9883848,31.5547402,5G8H2H63+JV,None,ChIJoaA1xZZIwx4Re3hnH9NOUJo,v1.0.1,South Africa
Kruger Safari,-23.9883848,31.5547402,5G8H2H63+JV,None,ChIJoaA1xZZIwx4Re3hnH9NOUJo,v1.0.1,South Africa
Jeju Island,33.3785614,126.5661908,8Q589HH8+CF,None,ChIJtcMT0y1pDDURs0J4dM6N51I,v1.0.1,South Korea
Jeju Volcanic Island,33.3058333,126.5163889,8Q588G48+8H,None,ChIJp8ljdJtWDDURI6ahhfno-IY,v1.0.1,South Korea
Casa Macareno (Madrid),40.4259065,-3.7047423,"C. de San Vicente Ferrer, 42, Centro, 28004 Madrid, Spain","Comunidad de Madrid, Spain",ChIJBYaXUGIoQg0RAIlKM0o3jio,v1.0.0,Spain
Clarita (Madrid),40.4222353,-3.704303799999999,"Corre. Baja de San Pablo, 17, Centro, 28004 Madrid, Spain","Comunidad de Madrid, Spain",ChIJ-wZ7OH0oQg0Rlre-0Xf9YCg,v1.0.0,Spain
El Horreo Asturiano (Madrid),40.462348,-3.6876026,"Calle del Dr. Fleming, 52, Chamartín, 28036 Madrid, Spain","Comunidad de Madrid, Spain",ChIJLe1MiBkpQg0RaEX0n3DCmKs,v1.0.0,Spain
Fabrica Maravillas (Madrid),40.4226581,-3.7017355,"C. de Valverde, 29, Centro, 28004 Madrid, Spain","Comunidad de Madrid, Spain",ChIJcYoJ54coQg0RcdBz4_ZLaaw,v1.0.0,Spain
Islas Cíes,42.214554,-8.905221599999999,"637V+RW Nigrán, Spain",Spain,ChIJa9KNN11fLw0RtP9YCHuuxuM,v1.0.1,Spain
Madrid Me Mata (Madrid),40.4263191,-3.7018202,"Corre. Alta de San Pablo, 31, Centro, 28004 Madrid, Spain","Comunidad de Madrid, Spain",ChIJmwRLxokoQg0Rf1qAIYrlCTQ,v1.0.0,Spain
Mount Teide,28.2723384,-16.642508,"79C4+WX Paradores Cañadas del Teide, Spain","Canarias, Spain",ChIJRWekGRKEagwRFH-J1LOwpY0,v1.0.1,Spain
Ogrelo Restaurante Gallego (Madrid),40.419431,-3.67426,"C. de Menorca, 39, Retiro, 28009 Madrid, Spain","Comunidad de Madrid, Spain",ChIJQXUp0qUoQg0Rv9DotsANAuQ,v1.0.0,Spain
Parque Nacional Ordesa y Monte Perdido,42.6468705,0.0349001,"J2WM+PX Fanlo, Spain","Aragón, Spain",ChIJR71L73_5Vw0RdilE6jcNZmc,v1.0.0,Spain
Picos de Europa,43.1872155,-4.821524,"55PH+V9 Bulnes, Cabrales, Spain",Spain,ChIJzzVlhZPISQ0RUNnc4l-BkXI,v1.0.1,Spain
Pyrénées – Mont Perdu World Heritage Site,42.6755943,0.0337596,"M2GM+6G Espierba, Spain","Aragón, Spain",ChIJ-2O0VvwCqBIRF9dry2jQa2Y,v1.0.0,Spain
Sagrada Família,41.4036299,2.1743558,"Carrer de la Marina, 253, L'Eixample, 08013 Barcelona, Spain","Catalunya, Spain",ChIJk_s92NyipBIRUMnDG8Kq2Js,v1.0.1,Spain
Zona Zero (Aragon/Pyrenees),42.41445179999999,0.1396939,"Av. Ordesa, 5, 22330 Aínsa, Huesca, Spain","Aragón, Spain",ChIJb4P6oMb6pxIRcKtSSLOo4YQ,v1.0.0,Spain
Svalbard Northern Lights,77.8749725,20.9751821,"Ян-Майен, Шпицберген, Улица Олёшивоская, 9170, Svalbard and Jan Mayen","Svalbard, Svalbard and Jan Mayen",ChIJScCjT9zPoUURdeg1G-dz8ys,v1.0.1,Svalbard and Jan Mayen
Kungsleden Trail,67.6214492,18.1075171,"Kungsleden, 982 99 Gällivare, Sweden","Norrbottens län, Sweden",ChIJoT-OBDCX2UUR_a2kznUTk84,v1.0.1,Sweden
Sarek National Park,67.2833333,17.7,"Jokkmokk kommun Sarek NB, 962 99 Jokkmokk, Sweden","Norrbottens län, Sweden",ChIJaco-LeWt2UUR5irnCsju3UU,v1.0.1,Sweden
Aletsch Glacier,46.4887031,8.0530777,"F3Q3+F6 Fieschertal, Switzerland","Valais, Switzerland",ChIJawy6WGNwj0cRU31SiVKxSoE,v1.0.1,Switzerland
Cabane des Diablerets,46.3386963,7.2154656,"Cabane-des-Diabl. (Oldenegg), 1865 Ormont-Dessus, Switzerland","Vaud, Switzerland",ChIJZwFFnWLpjkcRAQeujV4zx6Y,v1.0.0,Switzerland
Lavertezzo,46.17880450000001,8.890437300000002,"Montedato 53, 6595 Lavertezzo Piano, Switzerland","Ticino, Switzerland",ChIJS9h5FHOxhUcR24M4JFGiVjM,v1.0.0,Switzerland
Matterhorn,45.9765738,7.6584519,"XMG5+J9 Zermatt, Switzerland","Valais, Switzerland",ChIJ2ey5y2gzj0cRSVjlrIxFJpg,v1.0.1,Switzerland
Osogna,46.31197299999999,8.9870632,"Piazza Grande 19, 6703 Riviera, Switzerland","Ticino, Switzerland",ChIJx_NaOYVShEcRBUbkEQbRCPk,v1.0.0,Switzerland
Rhône Glacier,46.6134344,8.396326799999999,"J97W+9G Obergoms, Switzerland","Valais, Switzerland",ChIJG47WfxN8hUcRYvONlSXmKOc,v1.0.0,Switzerland
Staubbach Waterfall (Lauterbrunnen),46.5896276,7.905226399999999,"Staubbachfall Waterfall, Losisgräbli 419, 3825 Lauterbrunnen, Switzerland","Bern, Switzerland",ChIJU-KeMrWhj0cRtAJrSzoR2TM,v1.0.0,Switzerland
Swiss National Park,46.66662609999999,10.2000257,"M682+M2 Zernez, Switzerland","Grisons, Switzerland",ChIJpZMMuxxqg0cRjMtfP_SXcOg,v1.0.1,Switzerland
The Matterhorn,45.9765738,7.6584519,"XMG5+J9 Zermatt, Switzerland","Valais, Switzerland",ChIJ2ey5y2gzj0cRSVjlrIxFJpg,v1.0.1,Switzerland
Tetiaroa (Tahiti),-16.9989772,-149.5829623,53MG2C28+CR,None,ChIJJ0R6frGgkHYRGC0fEZ6f-jo,v1.0.0,Tahiti
Pamir Highway,38.575351,73.5459918,"M41, Tajikistan","Vilojati Muxtori Kūhistoni Badaxşon, Tajikistan",ChIJcfiJy61StDgRVw7sjBINqjI,v1.0.1,Tajikistan
Pamir Mountains,39.0,72.0,8JFJ2222+22,None,ChIJreIEe6AzvzgRxWpfAornYnA,v1.0.1,Tajikistan
Chumbe Island,-6.278764600000001,39.1774489,"P5CG+FX Zanzibar, Tanzania","Mjini Magharibi, Tanzania",ChIJC4cWXujcXBgRFUmJvgEqJEA,v1.0.0,Tanzania
Mnemba Island (Tanzania),-5.8204983,39.383505,"59HM+RC Kigomani, Tanzania","Unguja North, Tanzania",ChIJw7_RDbjeQhgRW4ih_MDJIwI,v1.0.0,Tanzania
Mount Kilimanjaro,-3.0674247,37.35562729999999,"W9M4+27 Gilman's Point, Tanzania","Kilimanjaro, Tanzania",ChIJBahuOVr8ORgRAWzqjkccdI4,v1.0.1,Tanzania
Mount Kilimanjaro,-3.0674247,37.35562729999999,"W9M4+27 Gilman's Point, Tanzania","Kilimanjaro, Tanzania",ChIJBahuOVr8ORgRAWzqjkccdI4,v1.0.1,Tanzania
Mount Kilimanjaro,-3.0674247,37.35562729999999,"W9M4+27 Gilman's Point, Tanzania","Kilimanjaro, Tanzania",ChIJBahuOVr8ORgRAWzqjkccdI4,v1.0.1,Tanzania
Mount Kilimanjaro,-3.0674247,37.35562729999999,"W9M4+27 Gilman's Point, Tanzania","Kilimanjaro, Tanzania",ChIJBahuOVr8ORgRAWzqjkccdI4,v1.0.1,Tanzania
Mount Kilimanjaro Marangu Route,-3.0674247,37.35562729999999,"W9M4+27 Gilman's Point, Tanzania","Kilimanjaro, Tanzania",ChIJBahuOVr8ORgRAWzqjkccdI4,v1.0.1,Tanzania
Ngorongoro Crater,-3.1617522,35.5876697,"RHQQ+73 Ilturot Lorkereyan, Tanzania","Arusha, Tanzania",ChIJuesQrFkNNBgRTCZxFqttM_U,v1.0.1,Tanzania
Ngorongoro Crater,-3.1617522,35.5876697,"RHQQ+73 Ilturot Lorkereyan, Tanzania","Arusha, Tanzania",ChIJuesQrFkNNBgRTCZxFqttM_U,v1.0.1,Tanzania
Ngorongoro Crater,-3.1617522,35.5876697,"RHQQ+73 Ilturot Lorkereyan, Tanzania","Arusha, Tanzania",ChIJuesQrFkNNBgRTCZxFqttM_U,v1.0.1,Tanzania
Ngorongoro Crater,-3.1617522,35.5876697,"RHQQ+73 Ilturot Lorkereyan, Tanzania","Arusha, Tanzania",ChIJuesQrFkNNBgRTCZxFqttM_U,v1.0.1,Tanzania
Ngorongoro Crater Safari,-3.1740143,35.563876,"RHG7+9H Mti Mmoja, Tanzania","Arusha, Tanzania",ChIJbdIc7axyNBgRqBnRyES1baM,v1.0.1,Tanzania
Serengeti Migration,-2.3333333,34.8333333,"MR8M+M8 Thorn Tree Tented Camp, Tanzania","Mara, Tanzania",ChIJ0cbagNbNMhgRRTnrnfNXoS4,v1.0.1,Tanzania
Serengeti Migration,-2.3333333,34.8333333,"MR8M+M8 Thorn Tree Tented Camp, Tanzania","Mara, Tanzania",ChIJ0cbagNbNMhgRRTnrnfNXoS4,v1.0.1,Tanzania
andBeyond Ngorongoro Crater Lodge (Ngorongoro Conservation Area),-3.240128,35.49691,"QF5W+WQ Ngorongoro, Tanzania","Arusha, Tanzania",ChIJ_____z8NNBgR29ztOD_BaLw,v1.0.0,Tanzania
Serengeti Migration,-3.0362405,34.7098886,6G8PXP75+GX,None,ChIJD-U68ogcNxgRINH_1FsWCZ8,v1.0.1,Tanzania
Serengeti Migration,-3.0362405,34.7098886,6G8PXP75+GX,None,ChIJD-U68ogcNxgRINH_1FsWCZ8,v1.0.1,Tanzania
Serengeti Migration,-3.0362405,34.7098886,6G8PXP75+GX,None,ChIJD-U68ogcNxgRINH_1FsWCZ8,v1.0.1,Tanzania
Serengeti Migration,-3.0362405,34.7098886,6G8PXP75+GX,None,ChIJD-U68ogcNxgRINH_1FsWCZ8,v1.0.1,Tanzania
Erawan National Park,14.3754962,99.1439623,"94GV+5HW Erawan National Park, Tha Kradan, Si Sawat District, Chang Wat Kanchanaburi 71250, Thailand","Chang Wat Kanchanaburi, Thailand",ChIJFXu8H6R25DAResligLqc7lQ,v1.0.0,Thailand
Phang Nga Bay,8.2445516,98.56350619999999,"6HV7+RC Ko Yao Noi, Ko Yao District, Phang Nga, Thailand","Phang Nga, Thailand",ChIJVawJox-uUTARyqkHbtpiR34,v1.0.1,Thailand
Fowl Cay Resort (Fowl Cay Island),24.1930719,-76.4617726,"Fowl Cay Resort Fowl Cay, The Bahamas","Black Point, The Bahamas",ChIJ0YUGDPwpLokRLEj8RXm1ktU,v1.0.0,The Bahamas
"Pig Beach, Exuma",24.183611,-76.456389,"5GMV+CC, The Bahamas","Black Point, The Bahamas",ChIJ8fl0deIpLokRae0mjEZLW3A,v1.0.0,The Bahamas
Tiamo Resort,24.1830925,-77.623872,"driggs hill area driggs hill aera, The Bahamas","South Andros, The Bahamas",ChIJY0gV7UrDLokRNZTwYkCcj1o,v1.0.0,The Bahamas
Atauro Island,-8.2368705,125.5767287,"QH7G+7M Anartuto, Timor-Leste","Dili, Timor-Leste",ChIJgzih0QiYAS0Rl8hUN-5_0SU,v1.0.0,Timor-Leste
Antalya,36.8968908,30.7133233,"Etiler, Evliya Çelebi Cd. No:2, 07010 Muratpaşa/Antalya, Türkiye","Antalya, Türkiye",ChIJwa2t3a6awxQRMy7j-XOfxpU,v1.0.0,Türkiye
Cappadocia Fairy Chimneys,38.6291311,34.8043365,"Tekelli, Kesek Meydanı No:14, 50240 Uçhisar/Nevşehir Merkez/Nevşehir, Türkiye","Nevşehir, Türkiye",ChIJ02SFSWduKhURukC5M3xXRcM,v1.0.1,Türkiye
Cappadocia Hot Air Balloons,38.6440663,34.8301856,"Isalı-Gaferli-Avcılar Mah, İsali - Gaferli - Avcılar, Demirhan Sk. no:4/a, 50180 Göreme/Nevşehir Merkez/Nevşehir, Türkiye","Nevşehir, Türkiye",ChIJ4cYViONpKhURuamVV4f66Lc,v1.0.1,Türkiye
Cappadocia Underground Cities,38.4599343,34.75225990000001,"Camikebir, Nevşehir Niğde Yolu No:4, 50760 Kaymaklı/Nevşehir Merkez/Nevşehir, Türkiye","Nevşehir, Türkiye",ChIJk9bxn8ITKhURGcquDqMYZDA,v1.0.1,Türkiye
Ephesus Ruins,37.9355518,27.3461146,"Atatürk, Meryem Ana Yolu No:3, 35920 Selçuk/İzmir, Türkiye","İzmir, Türkiye",ChIJ3ctA4hetvhQRvFJ0p_FO1Xk,v1.0.1,Türkiye
Göreme Open-Air Museum,38.6400499,34.8453614,"JRRW+24 Göreme/Nevşehir Merkez/Nevşehir, Türkiye","Nevşehir, Türkiye",ChIJ7eS75-xnKhUR_syP0bAUyrs,v1.0.1,Türkiye
Mount Ararat,39.70243929999999,44.2990761,"P72X+XJ, 04402 Çiftlik/Doğubayazıt/Ağrı, Türkiye","Ağrı, Türkiye",ChIJrUKDYzLSFEARfCSxtlT6pqo,v1.0.1,Türkiye
Pamukkale,37.9136957,29.1187097,"Pamukkale, Turgut Özal Cd. No:49/A, 20280 Pamukkale/Denizli, Türkiye","Denizli, Türkiye",ChIJL9ogVskTxxQR1vweRV8PGbE,v1.0.1,Türkiye
Pamukkale Hot Springs,37.9243909,29.1232377,"Merkez, Pamukkale, 20190 Pamukkale/Denizli, Türkiye","Denizli, Türkiye",ChIJ1eSgdDoSxxQRWzBYe0LxxJI,v1.0.0,Türkiye
Pamukkale Thermal Pools,37.9243909,29.1232377,"Merkez, Pamukkale, 20190 Pamukkale/Denizli, Türkiye","Denizli, Türkiye",ChIJ1eSgdDoSxxQRWzBYe0LxxJI,v1.0.1,Türkiye
Bwindi Impenetrable Forest,-1.0521495,29.6201006,"WJXC+42 Nyalutembe, Uganda","Western, Uganda",ChIJWdjD2lid3hkR-sFakE0EL5c,v1.0.1,Uganda
Sanctuary Gorilla Forest Camp,-0.9893266,29.6139089,"2J67+7H Buhoma, Uganda","Mkoa wa Magharibi, Uganda",ChIJ0atsRP2f3hkRHa1oOcevzZw,v1.0.0,Uganda
Tunnel of Love,50.7505195,26.0432894,"Q22V+69, Klevan', Rivne Oblast, Ukraine","Rivne, Ukraine",ChIJrVkz65RnL0cREx-rSLpnSNY,v1.0.0,Ukraine
Beachy Head,50.7440267,0.2373869,"P6VP+JX Eastbourne, UK","England, United Kingdom",ChIJ1x52fOd230cRMaJYfpyjiDk,v1.0.0,United Kingdom
Fairy Pools,57.25034309999999,-6.2582954,"7P2R+4M Grula, Isle of Skye, UK","Scotland, United Kingdom",ChIJEd0VoW05jEgRffGsm5G5y34,v1.0.1,United Kingdom
Giant's Causeway,55.2408073,-6.5115554,"6FRQ+89 Bushmills, UK","Northern Ireland, United Kingdom",ChIJD48V9EQpYEgR0h_eGaCMIvM,v1.0.1,United Kingdom
Giant's Causeway,55.2408073,-6.5115554,"6FRQ+89 Bushmills, UK","Northern Ireland, United Kingdom",ChIJD48V9EQpYEgR0h_eGaCMIvM,v1.0.1,United Kingdom
Giant's Causeway,55.2408073,-6.5115554,"6FRQ+89 Bushmills, UK","Northern Ireland, United Kingdom",ChIJD48V9EQpYEgR0h_eGaCMIvM,v1.0.1,United Kingdom
Giant's Causeway,55.2408073,-6.5115554,"6FRQ+89 Bushmills, UK","Northern Ireland, United Kingdom",ChIJD48V9EQpYEgR0h_eGaCMIvM,v1.0.1,United Kingdom
Isle of Skye,57.2736278,-6.2155023,"7QFM+FQ Sligachan, Isle of Skye, UK","Scotland, United Kingdom",ChIJ_8G9YSIxjEgRGGLI6W81XFg,v1.0.1,United Kingdom
Lake District National Park,54.4678688,-3.0704249,"FW9H+4R Ambleside, UK","England, United Kingdom",ChIJF3A1IGLBfEgRhnpq6t17tRc,v1.0.1,United Kingdom
Loch Ness,57.3228575,-4.4243818,"8HFG+46 Whitefield, Inverness, UK","Scotland, United Kingdom",ChIJKTeiTcMWj0gRL5H-9MtJ19Q,v1.0.1,United Kingdom
Longleat Maze,51.1880159,-2.2777427,"5PQC+6W Warminster, UK","England, United Kingdom",ChIJk-3qRM3Sc0gRRFsI4m1vQOw,v1.0.0,United Kingdom
Quiriang (Isle of Skye),57.64361100000001,-6.265277999999999,"JPVM+CV Portree, UK","Scotland, United Kingdom",ChIJ22ustw3PjUgRh-UmIClXt4E,v1.0.0,United Kingdom
Snowdonia National Park,52.9005518,-3.8963384,"W423+6F Blaenau Ffestiniog, UK","Wales, United Kingdom",ChIJuYjH7UZ7ZUgRp3v5A9XLf_8,v1.0.1,United Kingdom
Stonehenge,51.17888199999999,-1.826215,"3 Stonehenge Rd, Amesbury, Salisbury SP4 7BA, UK","England, United Kingdom",ChIJEfYKhTvmc0gR3dLTvOJwkZc,v1.0.1,United Kingdom
National Memorial for Peace and Justice,32.3722561,-86.3127586,"The National Memorial for Peace and Justice, 417 Caroline St, Montgomery, AL 36104, USA","Alabama, United States",ChIJj9SldmuBjogRivnzi5hVVFM,v1.0.0,United States (Alabama)
Denali Midnight Sun,64.8865857,-147.0293349,"625 2 Rivers Rd, Fairbanks, AK 99712, USA","Alaska, United States",ChIJN5GWfZjKM1ERQ2unlIlvIyA,v1.0.1,United States (Alaska)
Ice Kayaking,58.3707351,-134.6166992,"2767 Sherwood Ln, Juneau, AK 99801, USA","Alaska, United States",ChIJE4WKcwYeAVQRuMa_cWt4ko8,v1.0.0,United States (Alaska)
Mendenhall Ice Caves,58.4409459,-134.5458632,"CFR3+HM4, Juneau, AK 99801, USA","Alaska, United States",ChIJEavuouvkAFQRkUvhRPkXKMc,v1.0.1,United States (Alaska)
Stillpoint Lodge (Halibut Cove),59.59253799999999,-151.2315701,"51983 Halibut Cove Rem SW, Homer, AK 99603, USA","Alaska, United States",ChIJq523GX0qwVYRd30nG3izITE,v1.0.0,United States (Alaska)
Glacier Bay National Park,58.66580729999999,-136.9002147,94C5M38X+8W,None,ChIJpwhC0wkNqlYRYD228-ekk-I,v1.0.1,United States (Alaska)
Mount McKinley,63.06916889999999,-151.0069842,93MC3X9V+M6,None,ChIJGxxtMAPmzVYRAs7h65U7b7M,v1.0.1,United States (Alaska)
Northern Lights,63.588753,-154.4930619,93M7HGQ4+GQ,None,ChIJG8CuwJzfAFQRNduKqSde27w,v1.0.1,United States (Alaska)
Antelope Canyon,36.8619103,-111.3743302,"VJ6G+Q7 LeChee, AZ, USA","Arizona, United States",ChIJCw6gm_QRNIcRm6dqrQgWNpg,v1.0.1,United States (Arizona)
Grand Canyon Skywalk,36.011943,-113.8108372,"5001 Eagle Point Service Rd, Peach Springs, AZ 86434, USA","Arizona, United States",ChIJK0N3NakTzIAR5KnZMl6T5wA,v1.0.1,United States (Arizona)
Havasu Falls,36.2552091,-112.6979449,"7842+3R Supai, AZ, USA","Arizona, United States",ChIJl1g-fgmyzIAR16qewajSiqE,v1.0.1,United States (Arizona)
Havasu Falls,36.2552091,-112.6979449,"7842+3R Supai, AZ, USA","Arizona, United States",ChIJl1g-fgmyzIAR16qewajSiqE,v1.0.0,United States (Arizona)
Havasu Falls,36.2552091,-112.6979449,"7842+3R Supai, AZ, USA","Arizona, United States",ChIJl1g-fgmyzIAR16qewajSiqE,v1.0.1,United States (Arizona)
Havasu Falls,36.2552091,-112.6979449,"7842+3R Supai, AZ, USA","Arizona, United States",ChIJl1g-fgmyzIAR16qewajSiqE,v1.0.0,United States (Arizona)
Red Agave Resort,34.7898228,-111.7656788,"120 Canyon Cir Dr, Sedona, AZ 86351, USA","Arizona, United States",ChIJP8IjlgumLYcRwA3EOye821o,v1.0.0,United States (Arizona)
Canyonlands,38.2135733,-109.9025345,85CG637W+CX,None,ChIJqaYYRe7hR4cRquYCxalSpBU,v1.0.0,United States (Arizona)
Roden Crater,35.425556,-111.258611,857CCPGR+6H,None,ChIJfaGqCUcGMocRXxCVth5Jn58,v1.0.0,United States (Arizona)
America’s Cup (San Francisco),37.804767,-122.401906,"Cruise Terminal at Pier 27, San Francisco, CA 94111, USA","California, United States",ChIJieBI6PeAhYARnJbBFnmYDQg,v1.0.0,United States (California)
Angel Island,37.860909,-122.4325682,"Sunset Tr, Tiburon, CA 94920, USA","California, United States",ChIJ1Rtu3uyDhYARYkTv738oYhk,v1.0.1,United States (California)
Cabrillo National Monument,32.6722558,-117.2416094,"Cabrillo National Monument, 1800 Cabrillo Memorial Dr, San Diego, CA 92106, USA","California, United States",ChIJf8WHX0Cs3oARjGBkWjMtov4,v1.0.0,United States (California)
Davenport,37.0106071,-122.193823,"1 Davenport Ave, Davenport, CA 95017, USA","California, United States",ChIJbWtVV3RQjoAREgB5St1W1JQ,v1.0.0,United States (California)
Death Valley National Park,36.5322649,-116.9325408,"G3J8+WX Furnace Creek, CA, USA","California, United States",ChIJsf-PHqI5x4ARJd0j14NziRw,v1.0.0,United States (California)
Desolation Wilderness (Lake Tahoe),38.9518146,-120.1120025,"138 CA-89, South Lake Tahoe, CA 96150, USA","California, United States",ChIJ97QBA5UpmoARam7ThBRxq-E,v1.0.0,United States (California)
Fitzgerald Marine Reserve,37.523765,-122.5175189,"J V Fitzgerald Marine Reserve, 200 Nevada Ave, Moss Beach, CA 94038, USA","California, United States",ChIJEX0UEu1xj4ARlyKBlfv0QVM,v1.0.0,United States (California)
Half Dome,37.7459192,-119.5331992,"PFW8+9P Yosemite Valley, CA, USA","California, United States",ChIJo8CxverzloARZHrswixEpaM,v1.0.1,United States (California)
LACMA (Los Angeles),34.0639323,-118.3592293,"5905 Wilshire Blvd, Los Angeles, CA 90036, USA","California, United States",ChIJsXqcyjy5woARNz6sOh0ZmwA,v1.0.0,United States (California)
Lake Tahoe,39.0968493,-120.0323507,"3XW9+P3 Tahoma, CA, USA","California, United States",ChIJUREfuaF4mYARILWv7q8fP4w,v1.0.1,United States (California)
Lassen Volcanic National Park,40.49766,-121.4206552,"FHXH+3P Warner Valley, CA, USA","California, United States",ChIJvzhBwQdWnYARQmdmeqfYNI8,v1.0.1,United States (California)
Mariposa Grove of Giant Sequoias,37.513596,-119.596816,"GC73+C7 Wawona, CA, USA","California, United States",ChIJ6V2cbnqPloART4ibdwh9czk,v1.0.1,United States (California)
McKenna Falls (Big Sur),36.15782590000001,-121.6721628,"585H+44 Slates Hot Springs, CA, USA","California, United States",ChIJdWXVljSAjYAR9cI1Q265aGY,v1.0.0,United States (California)
Muir Woods National Monument,37.8970199,-122.5811177,"VCW9+RH Tamalpais-Homestead Valley, CA, USA","California, United States",ChIJrWJnvbSRhYAR-a__aHZY_3o,v1.0.1,United States (California)
Pescadero Beach House (Airbnb),37.25503260000001,-122.3812248,"827 North St, Pescadero, CA 94060, USA","California, United States",ChIJy7pAHTcHj4ARkXbqLINefqk,v1.0.0,United States (California)
Point Reyes National Forest,38.017769,-122.9912711,"2295+4F Inverness, CA, USA","California, United States",ChIJ6zCoVgvZhYARxCM6M2_wLwc,v1.0.0,United States (California)
Point Reyes National Forest,38.017769,-122.9912711,"2295+4F Inverness, CA, USA","California, United States",ChIJ6zCoVgvZhYARxCM6M2_wLwc,v1.0.0,United States (California)
Redwood National and State Parks,41.4017156,-124.041711,"CX25+M8 Orick, CA, USA","California, United States",ChIJpX9B9TZm0FQRjl87lWYyzzY,v1.0.1,United States (California)
San Francisco,37.7749295,-122.4194155,"5911 US-101, San Francisco, CA 94103, USA","California, United States",ChIJIQBpAG2ahYAR_6128GcTUEo,v1.0.0,United States (California)
Santa Barbara,34.4208305,-119.6981901,"100 E De La Guerra St, Santa Barbara, CA 93101, USA","California, United States",ChIJ1YMtb8cU6YARSHa612Q60cg,v1.0.0,United States (California)
Santa Monica (Los Angeles),34.0194543,-118.4911912,"802 Santa Monica Blvd, Santa Monica, CA 90401, USA","California, United States",ChIJGQCRws6kwoARq_Uj_7UKF7Q,v1.0.0,United States (California)
Skeggs’ Point / Corte de Madera,37.4107733,-122.3060805,"15463 CA-35, Redwood City, CA 94062, USA","California, United States",ChIJY1ZZT9mmj4ARc3vP4olW0oc,v1.0.0,United States (California)
Skye’s Hot Springs,36.2515153,-121.6899884,"7826+J2 Big Sur, CA, USA","California, United States",ChIJbTl0jvaGjYARNOKJMJKM_SU,v1.0.0,United States (California)
Treebones Yurts (Big Sur),35.8842528,-121.4553028,"71895 CA-1, Big Sur, CA 93920, USA","California, United States",ChIJEQTXma-ikoARCNwLZLNVDKA,v1.0.0,United States (California)
Ventana (Big Sur),36.229167,-121.7603537,"48123 CA-1, Big Sur, CA 93920, USA","California, United States",ChIJ4TZJu1aEjYARA-2yJUhD4as,v1.0.0,United States (California)
Yosemite Firefall,37.7291238,-119.6284757,"P9HC+JJ Yosemite Valley, CA, USA","California, United States",ChIJGWe0gt3tloAR-PMsIteprSM,v1.0.1,United States (California)
Yosemite Valley,37.74557009999999,-119.5936038,"Yosemite Valley Shuttle - Stop 6 Lower Yosemite Fall, Lower Yosemite Fall Trail, Yosemite Valley, CA 95389, USA","California, United States",ChIJr2PyOP7xloARbuLJVC4_IRk,v1.0.1,United States (California)
Tuolomne Meadows (Yosemite National Park),37.8775876,-119.3770242,8592VJHF+25,None,ChIJ0Vjr1C1YloARLg2UlTgAios,v1.0.0,United States (California)
Yosemite National Park,37.8651011,-119.5383294,8592VF86+2M,None,ChIJxeyK9Z3wloAR_gOA7SycJC0,v1.0.0,United States (California)
Antlers at Vail (Vail),39.6424442,-106.3906556,"680 Lionshead Pl, Vail, CO 81657, USA","Colorado, United States",ChIJ7xKSqmFwaocRzVJ3iJ5GBQg,v1.0.0,United States (Colorado)
Betty Ford Alpine Garden (Vail),39.6396492,-106.3654649,"522 S Frontage Rd E, Vail, CO 81657, USA","Colorado, United States",ChIJ_UU8I2xwaocRuKKs0R6dWfI,v1.0.0,United States (Colorado)
Garden of the Gods,38.8717933,-104.8861757,"1085 Garden Dr, Colorado Springs, CO 80919, USA","Colorado, United States",ChIJk5zMtRJQE4cRq22_Y1Lf6QQ,v1.0.0,United States (Colorado)
Hurricane Pass (Corkscrew),37.9316617,-107.6803383,"W8J9+MV Ironton, CO, USA","Colorado, United States",ChIJjeEBDNLfPocR-5ToYQxmf7s,v1.0.0,United States (Colorado)
Rocky Mountain National Park,40.3427932,-105.6836389,"88V8+4G Estes Park, CO, USA","Colorado, United States",ChIJ6QNZReR5aYcRF4KOp0PuJ_o,v1.0.1,United States (Colorado)
Rocky Mountain National Park (Boulder),40.3427932,-105.6836389,"88V8+4G Estes Park, CO, USA","Colorado, United States",ChIJ6QNZReR5aYcRF4KOp0PuJ_o,v1.0.0,United States (Colorado)
Vail Ski Resort (Vail),39.6061444,-106.3549717,"JJ4W+F2 Vail, CO, USA","Colorado, United States",ChIJ29swxmBwaocRoq1FSy3Pwqc,v1.0.0,United States (Colorado)
Little Palm Island Resort,24.6654206,-81.3875279,"28500 Overseas Hwy, Little Torch Key, FL 33042, USA","Florida, United States",ChIJu3d2VoL90IgRuZAr56lGuN0,v1.0.0,United States (Florida)
Everglades National Park,25.2866155,-80.89865089999999,76QX74P2+JG,None,ChIJ2wVsejCo0IgRlzEvdlY-4A8,v1.0.1,United States (Florida)
Akaka Falls State Park,19.8532104,-155.1549738,"28-875 Akaka Fls Rd, Honomu, HI 96728, USA","Hawaii, United States",ChIJAb7R-KStU3kRXOAiQMQ9jHI,v1.0.0,United States (Hawaii)
Ha'ena State Park (Kalalau Trail),22.2205851,-159.5774698,"5-8301 Kuhio Hwy, Kilauea, HI 96754, USA","Hawaii, United States",ChIJqzAikfP5BnwR0hDdPOMGbIw,v1.0.1,United States (Hawaii)
Hawaii Volcanoes National Park,19.4963669,-155.4661859,"FGWM+GG Volcano, HI, USA","Hawaii, United States",ChIJscm5wLZhUXkRJq6EPCZ7Wz4,v1.0.0,United States (Hawaii)
Kailua-Kona,19.6419129,-155.9962255,"75-5644 Palani Rd, Kailua-Kona, HI 96740, USA","Hawaii, United States",ChIJAbSRarIOVHkRp6UtiIMdkQc,v1.0.0,United States (Hawaii)
Kalalau Trail,22.1958872,-159.6203563,"Kalalau Trail, Kapaʻa, HI 96746, USA","Hawaii, United States",ChIJfzX9__L5BnwRS87z4fLUvyo,v1.0.1,United States (Hawaii)
Kapoho Tide Pools,19.6307674,-155.9897614,"Tidal Pool, 755858 A Kahakai Rd, Kailua-Kona, HI 96740, USA","Hawaii, United States",ChIJD4vGYXMPVHkR4AABPkHWJbM,v1.0.0,United States (Hawaii)
Kīlauea,19.4068929,-155.2833786,"CP48+QJ Volcano, HI, USA","Hawaii, United States",ChIJDX4xugraU3kRmxswh_ktWiA,v1.0.0,United States (Hawaii)
Mauna Loa,19.4721389,-155.5922066,"FCC5+V4 Waiākea-Uka, HI, USA","Hawaii, United States",ChIJgzQumlrkU3kRa05fNzKFGCE,v1.0.0,United States (Hawaii)
Na Pali Coast,22.1682018,-159.6577381,"589R+7W Wainiha, HI, USA","Hawaii, United States",ChIJ77w7saT4BnwRfoYaBAG6Ejs,v1.0.1,United States (Hawaii)
Puako,19.9673817,-155.8480761,"691780 Puako Beach Dr, Waimea, HI 96743, USA","Hawaii, United States",ChIJce_Qr3eHU3kRycWdnOcwLZQ,v1.0.0,United States (Hawaii)
Rainbow Falls,19.7192836,-155.109422,"40 Rainbow Dr, Hilo, HI 96720, USA","Hawaii, United States",ChIJ9zdOEaS0U3kRGor0hB9aSzc,v1.0.0,United States (Hawaii)
Waipio Valley,20.110261,-155.5995738,"4C62+45 Waipio, HI, USA","Hawaii, United States",ChIJv6ezMol2U3kR4GSHE-AI-Ys,v1.0.0,United States (Hawaii)
Jazz Fest,29.9858858,-90.0803433,"3308 Belfort Ave, New Orleans, LA 70119, USA","Louisiana, United States",ChIJ66YC6VGvIIYRdSu10xaV2-Q,v1.0.0,United States (Louisiana)
Lake Superior,47.723087,-86.940716,86VMP3F5+6P,None,ChIJYXjD7w5CRU0RtRTQhEj3d5w,v1.0.1,United States (Minnesota)
Lake Superior,47.723087,-86.940716,86VMP3F5+6P,None,ChIJYXjD7w5CRU0RtRTQhEj3d5w,v1.0.1,United States (Minnesota)
Lake Superior,47.723087,-86.940716,86VMP3F5+6P,None,ChIJYXjD7w5CRU0RtRTQhEj3d5w,v1.0.1,United States (Minnesota)
Chess Club & Scholastic Center,38.6447938,-90.26102089999999,"4657 Maryland Ave, St. Louis, MO 63108, USA","Missouri, United States",ChIJza0E3dW02IcR8AsdWw0PrMA,v1.0.0,United States (Missouri)
Glacier National Park,48.7596128,-113.7870225,"Q657+R5 Crystal Point, MT, USA","Montana, United States",ChIJVVVVVRWQaFMR7F3FFSK8Fq8,v1.0.1,United States (Montana)
Yellowstone National Park,46.1480446,-107.4848584,"4GX8+63 Bighorn, MT, USA","Montana, United States",ChIJo4uRSipQT1MRaCTMjSJL29A,v1.0.1,United States (Montana)
Yellowstone National Park,46.1480446,-107.4848584,"4GX8+63 Bighorn, MT, USA","Montana, United States",ChIJo4uRSipQT1MRaCTMjSJL29A,v1.0.0,United States (Montana)
Fly Geyser,40.8594506,-119.3318711,85G2VM59+Q7,None,ChIJUegPmV3Ln4ARWlZeuhKSVNI,v1.0.1,United States (Nevada)
Carlsbad Caverns,32.4203395,-104.2289925,"219 0.5 W Mermod St, Carlsbad, NM 88220, USA","New Mexico, United States",ChIJq4l9v3R544YR26Oiqc5Zu0A,v1.0.1,United States (New Mexico)
White Sands National Monument,32.3823687,-106.4906526,"270 Terrier St, White Sands Missile Range, NM 88002, USA","New Mexico, United States",ChIJhRS61gOf4IYRn2t0VicmuRY,v1.0.0,United States (New Mexico)
Carlsbad Caverns National Park,32.137045,-104.5437529,854Q4FP4+RF,None,ChIJW9e4xBN544YRvbI7vfc91G4,v1.0.0,United States (New Mexico)
White Sands National Park,32.7872403,-106.3256816,854MQMPF+VP,None,ChIJ83IQBwNj4IYRwyC_Z4cY0TY,v1.0.1,United States (New Mexico)
Humans of New York (New York City),40.7177326,-74.0000222,"152 Centre St, New York, NY 10013, USA","New York, United States",ChIJo8iZSIhZwokRtXynbVKJHXI,v1.0.0,United States (New York)
New York City,40.7127753,-74.0059728,"1356 Broadway, New York, NY 10018, USA","New York, United States",ChIJOwg_06VPwokRYv534QaPC8g,v1.0.0,United States (New York)
Watkins Glen Waterfall,42.3672123,-76.901592,"938X+V9 Watkins Glen, NY, USA","New York, United States",ChIJS_CTFgBf0IkR3hZneHJBI38,v1.0.0,United States (New York)
Boundary Trail Spring,43.0684735,-122.2288715,"Boundary Spgs Trl, Oregon, USA","Oregon, United States",ChIJi2WEDvdDxlQR1zNuow-hKpQ,v1.0.0,United States (Oregon)
Oneonta Narrows (Columbia River),45.5792303,-122.0723366,"HWHH+M3 Dodson, OR, USA","Oregon, United States",ChIJy1-kYrTrlVQRwbfABx6W2bw,v1.0.0,United States (Oregon)
Proxy Falls,44.16178559999999,-121.9278256,"536C+PV Belknap Springs, OR, USA","Oregon, United States",ChIJ_-zwLdBQv1QRYNW5J1HOkrk,v1.0.0,United States (Oregon)
Thor’s Well,44.28030649999999,-124.1132247,"7VJP+4P Yachats, OR, USA","Oregon, United States",ChIJRc0DW0CTwVQR5w4lL8IYRbo,v1.0.0,United States (Oregon)
Toketee Falls,43.2633418,-122.4337112,"1000 N Umpqua Hwy, Idleyld Park, OR 97447, USA","Oregon, United States",ChIJqcmHHmf2xlQRVnvTLStxGiw,v1.0.0,United States (Oregon)
Angel Oak Tree,32.7170636,-80.0804319,"3688 Angel Oak Rd, Johns Island, SC 29455, USA","South Carolina, United States",ChIJpVjSesZ__ogRq80pbIS1r8I,v1.0.1,United States (South Carolina)
Mount Rushmore,43.9492343,-103.3684019,"13420 US-16, Rapid City, SD 57702, USA","South Dakota, United States",ChIJX8I8FTlPfYcRYVfbU9FGLYc,v1.0.1,United States (South Dakota)
Badlands National Park,43.8553804,-102.3396912,85MVVM46+54,None,ChIJIyAFGAyHfocR8Hfm2jFeaGk,v1.0.1,United States (South Dakota)
Great Smoky Mountains,35.6531943,-83.5070203,"MF3V+75 Gatlinburg, TN, USA","Tennessee, United States",ChIJPTRyEx5SWYgR43xpB4asTqA,v1.0.1,United States (Tennessee)
Great Smoky Mountains,35.6531943,-83.5070203,"MF3V+75 Gatlinburg, TN, USA","Tennessee, United States",ChIJPTRyEx5SWYgR43xpB4asTqA,v1.0.1,United States (Tennessee)
Great Smoky Mountains,35.6531943,-83.5070203,"MF3V+75 Gatlinburg, TN, USA","Tennessee, United States",ChIJPTRyEx5SWYgR43xpB4asTqA,v1.0.1,United States (Tennessee)
Great Smoky Mountains,35.6531943,-83.5070203,"MF3V+75 Gatlinburg, TN, USA","Tennessee, United States",ChIJPTRyEx5SWYgR43xpB4asTqA,v1.0.1,United States (Tennessee)
Hamilton Pool,30.3423294,-98.1271142,"24300 Hamilton Pool Rd, Dripping Springs, TX 78620, USA","Texas, United States",ChIJG2GFOCI-W4YR10314G3umVQ,v1.0.0,United States (Texas)
Hamilton Pool Preserve (Austin),30.3423832,-98.1269025,"24300 Hamilton Pool Rd, Dripping Springs, TX 78620, USA","Texas, United States",ChIJ41BQe7I_W4YRlM-AqFBCxdg,v1.0.0,United States (Texas)
Hotel Emma (San Antonio),29.4430099,-98.48089879999999,"136 E Grayson St, San Antonio, TX 78215, USA","Texas, United States",ChIJoyKRhPb1XIYR1-Fl-fWKc8k,v1.0.0,United States (Texas)
San Antonio Zoo (San Antonio),29.4635835,-98.4725926,"3903 N St Mary's St, San Antonio, TX 78212, USA","Texas, United States",ChIJjWXd2Jr1XIYRpMJb_WLe1Ck,v1.0.0,United States (Texas)
Amangiri Resort (Grand Canyon National Park),37.0146225,-111.6111213,"1 Kayenta Rd, Canyon Point, UT 84741, USA","Utah, United States",ChIJq-qcNtwhNYcRazgIZDEKTIc,v1.0.0,United States (Utah)
Amangiri Resort (Grand Canyon National Park),37.0146225,-111.6111213,"1 Kayenta Rd, Canyon Point, UT 84741, USA","Utah, United States",ChIJq-qcNtwhNYcRazgIZDEKTIc,v1.0.0,United States (Utah)
Angel's Landing,37.2690326,-112.9468989,"7393+J6 Springdale, UT, USA","Utah, United States",ChIJl-HkPdbDyoAR7ldzEx96zMc,v1.0.1,United States (Utah)
Angel’s Landing,37.2690326,-112.9468989,"7393+J6 Springdale, UT, USA","Utah, United States",ChIJl-HkPdbDyoAR7ldzEx96zMc,v1.0.0,United States (Utah)
Bryce Amphitheater,37.6263719,-112.1507496,"JRGX+GP Tropic, UT, USA","Utah, United States",ChIJ0UcTwS5pNYcRoAQYKrS5-Wk,v1.0.1,United States (Utah)
Bryce Canyon Hoodoos,37.5930377,-112.1870895,"HRV7+65 Tropic, UT, USA","Utah, United States",ChIJLevDAsZrNYcRBm2svvvY6Ws,v1.0.1,United States (Utah)
Bryce Canyon Stargazing,37.6404299,-112.169587,"JRRJ+55 Bryce Canyon City, UT, USA","Utah, United States",ChIJj77zXuhoNYcRkQ-6U1IoflQ,v1.0.1,United States (Utah)
Escalate,37.7702663,-111.602119,"95 W Main St, Escalante, UT 84726, USA","Utah, United States",ChIJnwWwdcGRNYcR48rATudGkQQ,v1.0.0,United States (Utah)
Goblin Valley State Park,38.5758115,-110.7142821,"Goblin Valley State Pk, Green River, UT 84525, USA","Utah, United States",ChIJE5_GXOCXSYcRMA1uolF2IcE,v1.0.0,United States (Utah)
Goblin Valley State Park,38.5758115,-110.7142821,"Goblin Valley State Pk, Green River, UT 84525, USA","Utah, United States",ChIJE5_GXOCXSYcRMA1uolF2IcE,v1.0.0,United States (Utah)
The Narrows,37.3050051,-112.9491162,"The Narrows Bottom Up, Springdale, UT 84767, USA","Utah, United States",ChIJU1EkyQbByoARkXgJXnvk15w,v1.0.1,United States (Utah)
The Narrows (Zion National Park),37.3050051,-112.9491162,"The Narrows Bottom Up, Springdale, UT 84767, USA","Utah, United States",ChIJU1EkyQbByoARkXgJXnvk15w,v1.0.0,United States (Utah)
The Wave,37.0424291,-112.5121828,"745 US-89, Kanab, UT 84741, USA","Utah, United States",ChIJ8bJhKKTxNIcRnZhYqMsxem4,v1.0.1,United States (Utah)
Zion Angel's Landing,37.2690326,-112.9468989,"7393+J6 Springdale, UT, USA","Utah, United States",ChIJl-HkPdbDyoAR7ldzEx96zMc,v1.0.1,United States (Utah)
Zion Narrows,37.3050051,-112.9491162,"The Narrows Bottom Up, Springdale, UT 84767, USA","Utah, United States",ChIJU1EkyQbByoARkXgJXnvk15w,v1.0.1,United States (Utah)
Arches National Park,38.7328166,-109.5746222,85CGPCMG+45,None,ChIJUaoNhhr2yoARlcQo0WnqQk8,v1.0.1,United States (Utah)
Canyonlands National Park (White Rim Trail),38.2135733,-109.9025345,85CG637W+CX,None,ChIJqaYYRe7hR4cRquYCxalSpBU,v1.0.0,United States (Utah)
Dead Horse State Park,38.5054267,-109.7294241,85CGG74C+56,None,ChIJmWMPEXUSSIcRTLkqeG0ZK-4,v1.0.0,United States (Utah)
Grand Staircase-Escalante,37.4608765,-111.5943485,859CFC64+97,None,ChIJc7TW24SkNYcR6Ei4zga94io,v1.0.1,United States (Utah)
Lenticular Clouds (Mt. Rainier National Park),46.8671484,-121.6998559,"V882+V3 Sunrise, WA, USA","Washington, United States",ChIJh0vJ7ubNkFQRGKSRT_uh9Fw,v1.0.0,United States (Washington)
Mount Rainier National Park,46.8671484,-121.6998559,"V882+V3 Sunrise, WA, USA","Washington, United States",ChIJh0vJ7ubNkFQRGKSRT_uh9Fw,v1.0.1,United States (Washington)
Mount Rainier Wildflower Meadows,46.8671484,-121.6998559,"V882+V3 Sunrise, WA, USA","Washington, United States",ChIJh0vJ7ubNkFQRGKSRT_uh9Fw,v1.0.1,United States (Washington)
Mt. Rainier National Park,46.85230749999999,-121.7603229,"V62Q+WV Sunrise, WA, USA","Washington, United States",ChIJ-2AI95PRkFQRB7fWeuFPXls,v1.0.0,United States (Washington)
Seattle,47.6061389,-122.3328481,"398 Madison St, Seattle, WA 98154, USA","Washington, United States",ChIJVTPokywQkFQRmtVEaUZlJRA,v1.0.0,United States (Washington)
Alpine Lakes Wilderness,47.5795986,-121.0895919,84VWHWH6+R5,None,ChIJua0c28pfmlQRnT2-EjsL8fM,v1.0.0,United States (Washington)
Mount Saint Helens,46.19140059999999,-122.1955508,84RV5RR3+HQ,None,ChIJkSaKVlaZllQRx5TPtvS03Wk,v1.0.1,United States (Washington)
Olympic National Park,47.750087,-123.7510225,84VRQ62X+2H,None,ChIJL-50s5Q9jlQRwYNoMogQxbg,v1.0.0,United States (Washington)
The Enchantments (Alpine Lakes Wilderness),47.4785403,-120.8192443,84VXF5HJ+C8,None,ChIJ8cCD3mBEmlQR2QZU7buEI4A,v1.0.0,United States (Washington)
Alpine Valley Music Theatre,42.7380042,-88.43384999999999,"W2699 Co Hwy D, Elkhorn, WI 53121, USA","Wisconsin, United States",ChIJ7Vj7pACUBYgRkOOjz7pjkEM,v1.0.0,United States (Wisconsin)
Devil's Tower,44.5902098,-104.7146168,"H7RP+35 Devils Tower, WY, USA","Wyoming, United States",ChIJOT5U8z8GM1MResed1BOdJKk,v1.0.1,United States (Wyoming)
Devils Tower National Monument,44.5902098,-104.7146168,"H7RP+35 Devils Tower, WY, USA","Wyoming, United States",ChIJOT5U8z8GM1MResed1BOdJKk,v1.0.0,United States (Wyoming)
Grand Teton National Park,43.7904282,-110.6817627,"Q8R9+57 Jenny Lake, WY, USA","Wyoming, United States",ChIJqRtdyZ5RUlMRN6ORzI64oKU,v1.0.1,United States (Wyoming)
Yellowstone National Park,44.4279684,-110.5884542,"CCH6+5J Yellowstone National Park, WY, USA","Wyoming, United States",ChIJxbVfgaQfTlMRa-n8WQ9rYlU,v1.0.1,United States (Wyoming)
Yellowstone National Park,44.4279684,-110.5884542,"CCH6+5J Yellowstone National Park, WY, USA","Wyoming, United States",ChIJxbVfgaQfTlMRa-n8WQ9rYlU,v1.0.0,United States (Wyoming)
Grand Prismatic Spring,44.5250346,-110.8381793,85PFG5G6+2P,None,ChIJSaZVob7rUVMRYYf7yM2d9d8,v1.0.1,United States (Wyoming)
Old Faithful Geyser,44.4604724,-110.8281308,85PFF56C+5P,None,ChIJLUGweBztUVMRyT5pvxeJoNo,v1.0.1,United States (Wyoming)
Angel Falls,5.970125599999999,-62.53621989999999,67QVXFC7+3G,None,ChIJeagwcHG-xo0R598P9osOIXM,v1.0.1,Venezuela
Angel Falls Overflight,5.970125599999999,-62.53621989999999,67QVXFC7+3G,None,ChIJeagwcHG-xo0R598P9osOIXM,v1.0.1,Venezuela
Mount Roraima,5.1315566,-60.75854880000001,67QX46JR+JH,None,ChIJw6u1H1Aav40RCcFCNg_fNO4,v1.0.1,Venezuela
Mt. Roraima (Tepuis),5.1315566,-60.75854880000001,67QX46JR+JH,None,ChIJw6u1H1Aav40RCcFCNg_fNO4,v1.0.0,Venezuela
Ban Gioc,22.8543452,106.7242663,"VP3F+WCR, Đàm Thủy, Trùng Khánh District, Cao Bang, Vietnam","Cao Bang, Vietnam",ChIJG8cqpzxkyjYRNw9KrGsADNA,v1.0.0,Vietnam
Ban Gioc–Detian Falls,22.8543452,106.7242663,"VP3F+WCR, Đàm Thủy, Trùng Khánh District, Cao Bang, Vietnam","Cao Bang, Vietnam",ChIJG8cqpzxkyjYRNw9KrGsADNA,v1.0.1,Vietnam
Ha Long Bay,20.9100512,107.1839024,"W56M+2H Vân Đồn District, Quảng Ninh, Vietnam","Quảng Ninh, Vietnam",ChIJh-6MUZZXSjER23hUyLywxlU,v1.0.1,Vietnam
Ha Long Bay,20.9100512,107.1839024,"W56M+2H Vân Đồn District, Quảng Ninh, Vietnam","Quảng Ninh, Vietnam",ChIJh-6MUZZXSjER23hUyLywxlU,v1.0.0,Vietnam
Ha Long Bay,20.9100512,107.1839024,"W56M+2H Vân Đồn District, Quảng Ninh, Vietnam","Quảng Ninh, Vietnam",ChIJh-6MUZZXSjER23hUyLywxlU,v1.0.1,Vietnam
Ha Long Bay,20.9100512,107.1839024,"W56M+2H Vân Đồn District, Quảng Ninh, Vietnam","Quảng Ninh, Vietnam",ChIJh-6MUZZXSjER23hUyLywxlU,v1.0.0,Vietnam
Ha Long Bay Cat Ba Island,20.8,106.999722,"QXXX+XV Cát Hải, Hai Phong, Vietnam","Hai Phong, Vietnam",ChIJoUx6blNDSjERHYq_EXZxPu4,v1.0.1,Vietnam
Ha Long Bay Cruise,20.9536861,107.055974,"X334+99W, Bãi Cháy, Ha Long, Quảng Ninh, Vietnam","Quảng Ninh, Vietnam",ChIJV-lLrr5fSjERTXIdtxSl2vA,v1.0.1,Vietnam
Ha Long Bay Kayaking,20.9100512,107.1839024,"W56M+2H Vân Đồn District, Quảng Ninh, Vietnam","Quảng Ninh, Vietnam",ChIJh-6MUZZXSjER23hUyLywxlU,v1.0.1,Vietnam
Hạ Long Bay Cruise,20.9536861,107.055974,"X334+99W, Bãi Cháy, Ha Long, Quảng Ninh, Vietnam","Quảng Ninh, Vietnam",ChIJV-lLrr5fSjERTXIdtxSl2vA,v1.0.1,Vietnam
Phú Quốc,10.289879,103.98402,"7XQM+XJ2, Cửa Dương, Phu Quoc, Kien Giang, Vietnam","Kien Giang, Vietnam",ChIJF9qetGKMpzER2yzXvft5qgg,v1.0.0,Vietnam
Sapa Rice Terraces,22.4020227,103.8383204,"CR2Q+R84, Ta Phin, Sa Pa, Lao Cai, Vietnam","Lao Cai, Vietnam",ChIJReh4jQlqzTYRKDlJaqT6W-8,v1.0.1,Vietnam
Topas Lodge,22.276207,103.967024,"7XG8+GQ, Thanh Kim, Sa Pa, Lao Cai, Vietnam","Lao Cai, Vietnam",ChIJK5JV2iM5zTYRdcT4hz3h4ok,v1.0.0,Vietnam
Socotra Beaches,12.6914624,53.48458900000001,"MFRM+CV6, Qalansiyah, Yemen",Yemen,ChIJmxmznpn7tj0Rc4jZtXICuiM,v1.0.1,Yemen
Socotra Dragon's Blood Trees,12.4239199,53.9438152,"CWFV+HG Tahr, Yemen","Socotra, Yemen",ChIJbZROUg2ltj0RfXkmol49yDs,v1.0.1,Yemen
Socotra Island,12.4634205,53.8237385,"FR7F+9F Tahr, Yemen","Socotra, Yemen",ChIJ8UvJKjCjtj0Ra0Ks8N99CoU,v1.0.1,Yemen
Victoria Falls Devil's Pool,-17.9243125,25.8535837,"3VG3+7C Livingstone, Zambia","Southern, Zambia",ChIJ8cs41ADlTxkRco0hB0-zERU,v1.0.1,Zambia
Devil's Pool at Victoria Falls,-17.9315803,25.8301677,"3R9J+937, Victoria Falls, Zimbabwe","Matabeleland North, Zimbabwe",ChIJS5aXDT_lTxkRF7NqQVlDBrU,v1.0.1,Zimbabwe
Hwange National Park,-19.1240539,26.5925913,"Hwange National Park, Zimbabwe","Matabeleland North, Zimbabwe",ChIJl8F2irQ6TBkR3wSLZ1DUjiw,v1.0.1,Zimbabwe
Victoria Falls,-17.9315803,25.8301677,"3R9J+937, Victoria Falls, Zimbabwe","Matabeleland North, Zimbabwe",ChIJS5aXDT_lTxkRF7NqQVlDBrU,v1.0.1,Zimbabwe
